X,Y,tourism,building,name,ele,website,operator,amenity,phone,wikidata,addr:city,addr:country,addr:postcode,addr:street,addr:housenumber,wikipedia,email,internet_access,capacity,cuisine,alt_name,reg_name,opening_hours,name:de,roof:shape,description,outdoor_seating,smoking,url,addr:place,reservation,wheelchair,beds,contact:phone,mapillary,old_name,access,building:levels,contact:email,contact:website
6.91325261591369,46.0390745341682,alpine_hut,yes,Refuge de Loriaz,2020,,Mairie de Vallorcine,,,,,,,,,,,,49,,,,,,,,,,,,recommended,,,+33 4 50 18 04 91,,,yes,,refugedeloriaz@gmail.com,http://loriaz.fr/
6.94744019493599,46.0015819537311,alpine_hut,yes,Refuge du Tour (CAF),1470,,,,,,,,,,,,,,,,,,,,,,,,,,,,,,,,,,,
6.98664234629493,45.9966943696906,alpine_hut,yes,Refuge Albert 1er,2711,https://refugealbert1er.ffcam.fr/,Club Alpin Français,,,Q795102,,,,,,fr:Refuge Albert Ier,,,140,,,,,Prinz-Albert-Hütte,,"30 more places available as ""not guarded",,,,,recommended,,,,,,,,,
6.97006837664851,46.0266941198808,alpine_hut,yes,Chalet du Col de Balme,2191,,,,,,,,,,,,,,,,,,,,,,,,,,,,,,,,,,,
6.90041080558455,46.062477750396,alpine_hut,yes,La cabane du Vieux Emosson,,http://www.cabaneduvieux.ch,,restaurant,+41 79 342 95 66,,,,,,,,,,,,,,,,,,,,,,,,,,,,,,,
6.79194937625304,46.2674781082179,alpine_hut,house,Refuge de Trébentaz,1900,,,,,,,,,Route de la Ravine,238,,,no,,,,,,,,,,,,,yes,,28,+33 4 50 73 26 17,,,,,norbertthoule@hotmail.fr,http://refugetrebentaz.canalblog.com/
6.83232131264648,46.3450737999383,alpine_hut,yes,Refuge La Vouivre,,,,,,,Vouvry,,1896,Chemin de Tanay,19,,,,,,,,,,,,,,,,,,,,,,,,,
6.88997438113597,46.2653812994809,alpine_hut,house,Refuge de Charlet,,,,,,,,,,,,,,,,,,,,,,,,,,,,,,,,,,,,
7.01447821642809,46.3663587589809,alpine_hut,yes,Refuge de Mayen,,,,,,,Leysin,,1854,,,,,,,,,,,,,,,,,,,,,,,,,,,
7.09873105,45.92015565,alpine_hut,yes,Gîte de la Léchère,,https://www.lalechere.ch/,,,,,,,,,,,,,,,,,,,,,,,,,,,,,,,,,,
7.06908919694845,45.9272551996809,alpine_hut,yes,Bivouac du Dolent,2667,,"CAS, section de la Gruyère - Bulle",,,,,,,,,,,,,,,,,,,,,,,,,,,,,,,,,
7.0670653,45.94879605,alpine_hut,yes,Cabane de l'A Neuve CAS,2731,https://www.aneuve.ch/,CAS - Section Diablerets,,+41 27 783 24 24,Q2932233,,,,,,de:Cabane_de_l’A_Neuve,info@aneuve.ch,,,,,,,,,,,,,,,no,,,,,,,,
7.0436261,45.9996121,alpine_hut,yes,Cabane du Trient,3170,,,,,Q429164,,,,,,,,,,,,,,,,,,,,,,,,,,,,,,
7.06283241392165,46.0019264401787,alpine_hut,yes,Cabane d'Orny,2831,,SAC-CAS Section Diableret,,,Q2932220,,,,,,,,,,,,,,,,,,,,,,,,,,,,,,
7.30644427352847,46.0468339659881,alpine_hut,yes,Cabane de Louvie,2207,,Bourgeoisie de Bagnes,,,,,,,,,,,,,,,,,,,,,,,,,,,,,,,,,
7.41760433765268,46.0110840187238,alpine_hut,yes,Cabane des Dix,2928,http://www.cabanedesdix.ch/,,,,Q638441,,,,,,,,,,,,,,,,,,,,,,,,,,,,,,
7.69734585,46.04858485,alpine_hut,house,Rothornhütte,,,,,,Q14824554,,,,,,,,,,,,,,,,,,,,,,,,,,,,,,
7.06854010075585,46.1819525499751,alpine_hut,yes,Cabane Chalet-Neuf,1850,,,,,,,,,,,,,,,,,,,,,,,,,,,,,,,,,,,
7.07899224552739,46.1575667005062,alpine_hut,yes,Cabane du Sex Carro,,,,,,,,,,,,,,,,,,,,,,,,,,,,,,,,,,,,
7.08225147280491,46.1740883011548,alpine_hut,yes,Cabane du Demecre,2361,,,,,,,,,,,,,,,,,,,,,,,,,,,,,,,,,,,
7.09491066775919,46.1693124044129,alpine_hut,yes,Cabane de Sorniot,2064,http://www.sorniot.ch/,,,+41 27 746 24 26,,,,,,,,,,,,,,,,,,,,,,,,,,,,,,,
7.04784805,46.21458895,alpine_hut,yes,Cabane des Martinaux,1672,,,,,,,,,,,,,,,,,,,,,,,,,,,,,,,,,,,
7.0617498,46.2144265,alpine_hut,yes,Cabane de la Tourche,2198,,,,,,,,,,,,,,,,,,,,,,,,,,,,,,,,,,,
7.10053643926404,46.1889518492701,alpine_hut,yes,Cabane du Fenestral,,,,,,,,,,,,,,,,,,,,,,,,,,,,,,,,,,,,
7.13877642476337,46.193604145307,alpine_hut,yes,Lui d'Aout,,,,,,,,,,,,,,,,,,,,,,,,,,,,,,,,,,,,
7.1341585387754,46.2302103345137,alpine_hut,yes,Cabane Rambert,2582,,,,+41 27 207 11 22,,,,,,,,,,,,,,,,,,,,,,,,,,,,,,,
7.37875909282015,46.0749357065182,alpine_hut,yes,Cabane de Prafleuri,2657,http://www.prafleuri.ch/,,,,,,,,,,,,,,,,,,,,,,,,,,,,,,,,,,
7.1267803,46.25839375,alpine_hut,yes,Le Richard,,,,,,,,,,,,,,,,,,,,,,,,,,,,,,,,,,,,
7.13787595,46.26178425,alpine_hut,yes,La Vare,,,,,,,,,,,,,,,,,,,,,,,,,,,,,,,,,,,,
7.19047089299032,46.2591768498003,alpine_hut,hut,Gîte d'alpage de Dorbon,,https://www.dorbon.ch/,,,,,,,,,,,,,,,,,,,,,,,,,,,,,,,,,,
7.16307245,46.2843273,alpine_hut,yes,Cabane Barraud,1956,http://cas-diablerets.ch/barraud,Club Alpin Suisse - Section des Diablerets,,,,,,,,,,,no,,,,,,,,,,,,,,,,,,,,,,
7.1604954,46.2895066,alpine_hut,yes,Refuge de la Tour d'Anzeindaz,1879,https://www.anzeindaz.ch/,,,,,,,,,,,,,,,,,,,,,,,,,,,,,,,,,,
7.16208530121189,46.288173350032,alpine_hut,yes,Refuge Giacomini,1876,https://www.anzeindaz.com,,,,,,,,,,,,,,,,,,,,,,,,,,,,,,,,,,
7.04308051394637,46.3884728137922,alpine_hut,yes,CAS Châlet Lacombe,1670,,,,,,,,,,,,,,,,,,,,,,,,,,,,,,,,,,,
7.21460871462177,46.2798888774876,alpine_hut,yes,Refuge du Lac,,,,restaurant,,,,,,,,,,,,,,,,,,,,,,,,,,,,,,,,
7.2474387,46.31443245,alpine_hut,yes,Cabane de Prarochet,2555,,,,,,,,,,,,,,,,,,,,,,,,,,,,,,,,,2,,
7.34705818641401,46.2814928541463,alpine_hut,,Chalet du Prabé,,,,,,,,,,,,,,,,,,,,,,,,,,,,,,,,,,,,
7.38605443799868,46.0614485500621,alpine_hut,yes,Refuge de la Barmaz,2460,http://www.gym-mache.ch/Refuge/Pr%C3%A9sentation/tabid/300/Default.aspx,,,,,,,,,,,,,,,,,,,,,,,,,,,,,,,,,,
7.4574554321117,46.0563956079277,alpine_hut,yes,Cabane des Aiguilles Rouges,2800,http://www.gym-mache.ch/Refuge/Pr%C3%A9sentation/tabid/300/Default.aspx,,,,,,,,,,,,,,,,,,,,,,,,,,,,,,,,,,
7.5163219375678,46.1642017880438,alpine_hut,yes,Cabane Becs de Bosson,2985,http://www.vs-wallis.ch/wallis/huetten/bosson.html,,,,,,,,,,,,,,,,,,,,,,,,,,,,,,,,,,
7.47682408674051,46.1951241805821,alpine_hut,yes,Alpage et buvette de La Louère,,,,,,,,,,,,,,,,,,,,,,,,,,,,,,,,,,,,
7.47463758832004,46.2105825553367,alpine_hut,yes,Cabane du Mont-Noble,2244,http://www.mtnoble.ch/zwook,,,,,,,,,,,,,,,,,,,,,,,,,,,,,,,,,,
7.63334965,46.0922605,alpine_hut,yes,Cabane du Petit Mountet,2142,http://petitmountet.ch/,,,,,,,,,,,,,,,,,,,,,,,,,,,,,,,,,,
7.65351721410646,46.0600496002427,alpine_hut,yes,Cabane du Mountet CAS,2886,http://www.cas-diablerets.ch/mountet.htm,SAC - CAS,,,Q427372,,,,,,de:Cabane du Mountet,,,,,,Walliser Alpen,,,,,,,,,,,,,,,,,,
7.69948421358433,46.1601323998313,alpine_hut,yes,Turtmannhütte SAC,2519,,SAC - CAS,,,Q1374533,,,,,,,,,,,,Walliser Alpen,,,,,,,http://www.turtmannhuette.ch,,,,,,,,,,,
7.4205489,46.3551924,alpine_hut,yes,Gîte de Lourantze,,https://www.gitedelourantze.ch/,,restaurant,,,,,,,,,,,,regional,,,,,,,,,,,,,,,,,,,,
7.57448610140187,46.4002936498473,alpine_hut,yes,Lämmerenhütte,,,SAC,,,,,,,,,,,,,,,,,,,,,,,,,,,,,,,,,
7.80596251243852,46.1056389498461,alpine_hut,yes,Europahütte,2220,,,,,Q677583,,,,,,de:Europahütte,,,,,,,,,,,,,,,,,,,,,,,,
7.81764839982175,46.1027883746592,alpine_hut,yes,Domhütte SAC,2940,,SAC - CAS,,,Q679988,,,,,,,,,,,,Walliser Alpen,,,,,,,http://www.domhuette.ch,,,,,,,,,,,
7.84979937060293,46.1445636612974,alpine_hut,yes,Bordierhütte,2886,http://bordierhuette.ch/,,restaurant,+41 27 956 19 09,Q893444,,,,,,de:Bordierhütte,,,,,,,,,,,,,,,,no,,,,,,,,
7.86177444237869,46.3446941496745,alpine_hut,yes,Wiwannihütte,2470,http://www.wiwanni.ch,,,,,,,,,,,,,,,,,,,,,,no,,,,no,,,,,,,,
7.88978025996454,46.3949890772119,alpine_hut,house,Baltschiederklause,,https://www.rhone.ch/baltschiederklause,SAC - CAS,,,Q805816,,,,,,de:Baltschiederklause,,,,,,"Freiburger, Waadtländer und Berner Alpen",,,,,,,,,,,,,,,,,,
6.11037785585543,46.4318578931801,alpine_hut,yes,Chalet des Apprentis,Altitude 1500 m,,ACASE,,,,,,,,,,,no,,,,,,,,"""Le Chalet des apprentis a été construit par des apprentis de Genève et leurs maîtres. Il est toute l’année à disposition des groupements organisés de jeunes ou d’adultes"". Source: http://www.acase.ch/le-chalet-des-apprentis, consulté le 19.04.2017",,,,,,,,,,,,,,
6.12164636152751,46.5631678575281,alpine_hut,yes,Le Chalet Gaillard,,https://www.chaletgaillard.com,,restaurant,+33 6 85 58 59 09,,,,,,,,,,,regional,,,,,,,,,,,,,,,,,,,,
6.12153034412428,46.563375907098,alpine_hut,yes,Le Chalet Gaillard,,https://www.chaletgaillard.com,,restaurant,+33 6 85 58 59 09,,,,,,,,,,,regional,,,,,,,,,,,,,,,,,,,,
6.28861595989909,46.5795249998223,alpine_hut,yes,Cabane du Cunay,,,Club Alpin Suisse,,,,,,,,,,,no,,,,,,,,,,no,,,,,,,,,,,,
6.29558782629954,46.5866328006264,alpine_hut,yes,Cabane La Pivette,,,,,,,,,,,,,,,,,,,,,,,,,,,,,,,,,,,,
6.64499882892463,46.5754792503347,alpine_hut,yes,Chalet Scout,,http://filac.croisee.ch/,La Croisée,,,,,,,,,,,,,,,,,,,,,,,,,,,,,,,,,
6.3403616,46.6171064,alpine_hut,,ski club rizel,,https://sites.google.com/site/skiclubmontricher/,"Monsieur Cédric Beaud Rue de la Chaudine 5 1147 Montricher Tél. 021. 864.42.03  Location Cabaski : Mme Anne Peytregnet.  La Ville 6, 1148 L'Isle, tél. 079 645 15 06",,,,Montricher,,,,,,,,,,,,,,,,,,,,,,,,,,,,,
6.349714343975,46.680280985926,alpine_hut,,cabanne de la dent de vaulion,,,ski club vallorbe,,,,,,,,,,,,,,,,,,,,,,,,,,,,,,,,,
6.35264140203205,46.6765875998998,alpine_hut,,Cabane d'Orny dent de vaulion,,https://www.clubalpin.ch/page.php?p=cabane,club alpin Suisse sous-section de Morges,,,,Vaulion,CH,1325,,,,,,,,,,,,,,,,,Parchet,,,,,,,,,,
6.37106106777678,46.704611350357,alpine_hut,,Plan Saint-Jean,,http://www.vallorbe.ch/fr/vieculturelle/refuges/?action=showobject&object_id=4546,Commune de Vallorbe,,,,,,,,,,,no,,,,,,,,,,,,,,no,,,,,,,,
6.36048699144526,46.7227623998721,alpine_hut,yes,Cabane CAS du Mont d'Or,,http://www.cas-vallorbe.ch/cabane.htm,Club Alpin Suisse,,+41 (0) 21 843 11 17,,,,,,,,,,,,,,,,,,,no,,,,,,,,,,,,
6.46844006825458,46.6960410510579,alpine_hut,yes,,,,,,,,,,,,,,,,,,,,,,,,,,,,,,,,,,,,,
6.49542042339898,46.741276972619,alpine_hut,,Refuge de Chassagne (Ville d'Orbe),,,,shelter,,,,,,,,,,,,,,,,,,,,,,,,,,,,,,,,
6.9107049,46.4746957,alpine_hut,yes,Le Grillet CAS,,http://cas-jaman.ch/content/chalet-le-grillet,CAS Jaman,,,,,,,,,,,,,,,,,,,,,,,,,,,,,,,,,
6.95742086274868,46.4637488003216,alpine_hut,yes,Cabane La Planiaz,1436,,CAS,,,,,,,,,,,,,,,,,,,,,,,,,,,,,,,,,
6.75412539788509,46.6903068501234,alpine_hut,,Refuge des Brigands,,,,,,,,,,,,,,,,,,,,,,,,,,,,,,,,,,,,
6.74747449376076,46.7542455023581,alpine_hut,,Refuge,,,,,,,,,,,,,,,,,,,,,,,,,,,,,,,,,,,,
6.4841067790622,46.7596201001051,alpine_hut,yes,Refuge du Chauderon,,,,,,,,,,,,,,,,,,,,,,Le refuge n'existe plus. Il ne reste que les fondations. Sera-t-il reconstruit? 03.2019,,,,,,,,,,,,,,
6.49297609987315,46.7799157499941,alpine_hut,yes,,,,,,,,,,,,,,,,,,,,,,,,,,,,,,,,,,,,,
6.70805325383373,46.9225787439317,alpine_hut,yes,Les Petites Fauconnières,,,,restaurant,,,,,,,,,,,,regional,,,,,,,,,,,,,,,,,,,,
6.7238343363001,46.9183296001975,alpine_hut,yes,Cabane Perrenoud,1419,,CAS section Neuchâteloise,,,,,,,,,,,,,,,,,,,,,,,,,,,,,,,,,
6.74167670760855,46.934380150412,alpine_hut,yes,,,,,restaurant,,,,,,,,,,,,,,,,,,,,,,,,,,,,,,,,
6.7030577643013,47.0457530231946,alpine_hut,yes,,,,,,,,,,,,,,,,,,,,,,,,,,,,,,,,,,,,,
6.8026702,47.109016,alpine_hut,yes,Châlet Aster,,,,,,,,,,,,,,,,,,,,,,,,,,,,,,,,,,,,
6.86029404443654,47.0600316211251,alpine_hut,,Chalet du ski-club de Neuchâtel,,,,,,,,,,,,,,,,,,,,,,,,,,,,,,,,,,,,
6.9550436,47.02528405,alpine_hut,yes,CAS,,,,,,,Chaumont,,2067,Chemin du Château,11,,,,,,,,,,,,,,,,,,,,,,,,,
6.99390513195248,47.1647119534148,alpine_hut,yes,La Jonquille,1254,http://www.cas-chasseral.ch/index.php/le-mazot-et-la-jonquille,CAS- Chasseral,,,,Mont-Soleil,CH,2610,Mont-Soleil,159,,,no,,,,,,,,,,,,,,,,,,,,,,
7.1203475086346,46.4830530502805,alpine_hut,,La Cabane des Choucas,,,,,,,,,,,,,,,,,,,,,,,,,,,,,,,,,,,,
7.20391575628301,46.4588670496218,alpine_hut,yes,Cabane de la Videmanette,2119,,,,,,,,,,,,,,,,,,,,,,,,,,,,,,,,,,,
7.13237064329646,46.5330429997873,alpine_hut,yes,Cabane Bounavaux,1635,,Pro Natura,,,,,,,,,,,,,,,,,,,,,,,,,,,,,,,,,
7.16201869986056,46.5358646500089,alpine_hut,yes,CAS Les Marindes,1868,,,,,,,,,,,,,,,,Les Marindes,,,,,,,,,,,,,,,,,,,
7.25206088641699,46.5493165505586,alpine_hut,yes,Grubenberghütte,"1841;1840",https://www.grubenberg.ch/,SAC,,,,Schönried,CH,3778,Grubenbergweg,4,,,,,,,,,,,,,,,,,,,,,,,,,
7.19734155,46.6181489,alpine_hut,yes,Gros Ganet,,,,,,,,,,,,,,,,,,,,,,,,,,,,,,,,,,,,
7.20484332821258,46.6316429503495,alpine_hut,yes,Tissinèva,1474,,,restaurant,,,,,,,,,,,,,,,,,,,,,,,,,,,,,,,,
7.1964122,46.65355805,alpine_hut,yes,Les Mossettes,1066,,,restaurant,,,Cerniat FR,CH,1654,Route des Echelettes,10,,,,,,La Pinte des Mossettes,,,,,,,,,,,,,,,,,,,
7.17433575,46.6700251,alpine_hut,yes,Les Allières,,,,restaurant,,,,,,,,,,,,regional,,,,,,,,,,,,,,,,,,,,
7.18082475569456,46.6778038498258,alpine_hut,yes,La Berra,1630,,,,,,La Roche,CH,,,,,,,,,,,,,,,,,,,,,,,,,,,,
7.19029181196832,46.672057557161,alpine_hut,yes,Le Bi Gîte,1628,,,,,,Cerniat FR,CH,1654,Le Bi Gîto,253,,,,,,Bidjitho,Le Bi Gîte,,,,,,,,,,,,,,,,,,
7.18724203371772,46.6970617498844,alpine_hut,yes,Gros Cousimbert,1572,http://www.cousimbert.ch/,,,+41 26 413 36 09,,La Roche FR,CH,1634,Le Gros Cousimbert,396,,,,,,,,,Gross Käsenberg,hipped,,,,,,,,,,,,,,,
7.20235965,46.7023963,alpine_hut,yes,Wusta,1366,,,restaurant,,,,,,,,,,,,,,,,,,,,,,,,,,,,,,,,
7.21264417267596,46.6303362437366,alpine_hut,yes,Les Banderettes d'Amount,1528,,,,,,,,,,,,,,,,,,,,,,,,,,,,,,,,,,,
7.2144817,46.6353907,alpine_hut,yes,Poyet Riond,1385,,,,,,,CH,,,,,,,,,,,,,,,,,,,,,,,,,,,,
7.21032183965527,46.6665303995312,alpine_hut,yes,Parc des Fayes,1551,,,,,,Cerniat FR,CH,1654,Parc des Fayes,262,,,,,,,,,,,,,,,,,,,,,,,,,
7.22693124517418,46.6673622498517,alpine_hut,yes,Auta Chia,1459,http://www.hauta-chia.ch/,,restaurant,,,Cerniat FR,CH,1654,Route de l'Auta Chia,30,,,,,alpine_hut,Auta Chia d'Amont,,,,,,,,,,,,,,,,,,,
7.25029837754587,46.6505865501974,alpine_hut,yes,Ober Recardets,1464,,,restaurant,,,,,,,,,,,,,,,,,,,,,,,,,,,,,,,,
7.24304019803742,46.6541438999945,alpine_hut,yes,La Balisa,1415,,,,,,Schwarzsee,CH,1716,La Balisaz,199,,,,,,,,,,,,,,,,,,,,,,,,,
7.233106,46.66362435,alpine_hut,yes,Plan Rosset d'en haut,1423,,,,,,,,,,,,,,,,,,,,,,,,,,,,,,,,,,,
7.25830747063002,46.6313050375464,alpine_hut,yes,Combi,1625,,,,,,,,,,,,,,,,,,,,,,,,,,,,,,,,,,,
7.25177003870184,46.6356679500958,alpine_hut,yes,Grand Chalet,,,,,,,,,,,,,,,,,,,,,,,,,,,,,,,,,,,,
7.26459976880305,46.6469331003736,alpine_hut,yes,Oberi Rippa,1545,,,,,,,,,,,,,,,,Obere Rippa,,,,,,,,,,,,,,,,,,,
7.2685544,46.6429915,alpine_hut,yes,Marbach Brecca,1401,,,,,,,,,,,,,,,,Bregga d'en bas,,,,,,,,,,,,,,,,,,,
7.27103850894656,46.6441734502387,alpine_hut,yes,Sankt Antoni Brecca,1401,,,,,,,,,,,,,,,,Brecca,St. Antoni Brecca,,,,,,,,,,,,,,,,,,
7.2719595658222,46.650581350346,alpine_hut,yes,Unteri Rippa,1374,,,,,,,,,,,,,,,,Steinige Rippa,,,,,,,,,,,,,,,,,,,
7.27735557075797,46.6580574997333,alpine_hut,yes,Hubel Rippa,1135,,,,,,,,,,,,,,,,,,,,,,,,,,,,,,,,,,,
7.28437129761855,46.6561643499389,alpine_hut,yes,Unteres Bödeli,1238,,,,,,,,,,,,,,,,,,,,hipped,,,,,,,,,,,Unter Bödeli,,,,
7.30886937821632,46.6622372502562,alpine_hut,yes,Hürlisboden,1506,,,restaurant,,,,,,,,,,,,,,,,,,,,,,,,,,,,,,,,
7.31920590030442,46.6653576499956,alpine_hut,yes,Salzmatt,1638,,,,,,,,,,,,,,,,,,,,hipped,,,,,,,,,,,,,,,
7.20922381841227,46.6901657002972,alpine_hut,yes,La Gissetta,1160,,,,,,,,,,,,,,,,,,,,,,,,,,,,,,,,,,,
7.21475967459831,46.6909821558701,alpine_hut,yes,Waldhüsi,1093,,,,,,,CH,,,,,,,,,,,,,,,,,,,,,,,,,,,,
7.22421975,46.68126555,alpine_hut,yes,Italienera,1300,,,,,,,,,,,,,,,,,,,,hipped,,,,,,,,,,,,,,,
7.2305403764252,46.6850892995954,alpine_hut,yes,Gross Kapberg,1434,,,,,,Cerniat (FR),,,,,,,,,,,,,,hipped,,,,,,,,,,,,,,,
7.20903205,46.70058,alpine_hut,yes,Untere Wusta,1272,,,,,,,,,,,,,,,,,,,,,,,,,,,,,,,,,,,
7.2145697,46.69810015,alpine_hut,yes,Seewera,1120,,,,,,,,,,,,,,,,,,,,,,,,,,,,,,,,,,,
7.21718525,46.6992516,alpine_hut,yes,Chäserli,1057,,,,,,Plasselb,CH,1737,Poffets Vorschis,123,,,,,,,,,,,,,,,,,,,,,,,,,
7.23463064778532,46.7134562000503,alpine_hut,yes,Buntschli,1025,,,,,,Plasselb,CH,1737,Buntschli,98,,,,,,,,,,,,,,,,,,,,,,,,,
7.25580048852273,46.6759946895006,alpine_hut,yes,Fuchses Schwyberg,1573,,,,,,,,,,,,,,,,,,,,,,,,,,,,,,,,,,,
7.26455484255545,46.6755546498682,alpine_hut,yes,Lägerli,1504,,,,,,,,,,,,,,,,,,,,hipped,,,,,,,,,,,,,,,
7.261349,46.6829328,alpine_hut,yes,Schatters Schwyberg,1590,,,,,,,,,,,,,,,,,,,,,,,,,,,,,,,,,,,
7.27041591422793,46.7037673712487,alpine_hut,yes,Alp Grosser Schwyberg,1593,http://www.grosserschwyberg.ch,,,+41 26 412 12 82,,Plasselb,CH,1716,Gross Schwyberg,,,,,,,,,"Tu-Fr 10:00-23:00; Sa-Su 09:00-23:00",,,,,,,,,,,,,,,,,
7.27717641162864,46.6944039840835,alpine_hut,yes,Burlaja,1430,,,,,,,,,,,,,,,,Gross Burlaja,,,,,,,,,,,,,,,"Burleja; Gross Burleja",,,,
7.28933279091356,46.6950179001561,alpine_hut,yes,Ober Vorschis,1223,,,,,,,,,,,,,,,,Obere Vorsass,,,,,,,,,,,,,,,,,,,
7.23160638327339,46.7170339497638,alpine_hut,yes,Oberes Birbaumli,1148,,,,,,,,,,,,,,,,,,,,,,,,,,,,,,,Obere Birbaumena,,,,
7.32957320317578,46.7009717583259,alpine_hut,yes,Stoss,1514,,,,,,Schwarzsee,CH,1716,Stoss,23,,,,,,,,,,,,,,,,,,,,,,,,,
7.34983014955725,46.6746431500167,alpine_hut,yes,Gantrischli,1322,,,,+41 26 412 10 01,,,,,,,,,,,,Alpkäserei Gantrischli,,,,,,,,,,,,,,,,,,,
7.34597555962668,46.6946578502474,alpine_hut,yes,Bödeli,1106,,,,,,Sangernboden,CH,1738,Bödeli,30,,,,,,Winteracherbödeli,,,,,,,,,,,,,,,Winteracher,,,,
7.59950375,46.4745371,alpine_hut,yes,Lohnerhütte SAC,2171,http://www.sac-wildstrubel.ch/wordpress/lohnerhuette/,SAC - CAS,,,,,,,,,,grabemattli@gmail.com,,40,,,"Freiburger, Waadtländer und Berner Alpen",,,,,,,,,,,,,,,,,,
7.40580930748119,46.6107094001386,alpine_hut,yes,Niderhornhütte,1394,http://www.niderhornhuette.ch/,,,,,Boltigen,CH,3766,Lochmoos,903,,,,,,,,,,,,,,,,yes,,,,,,,,,
7.43231693831588,46.5862956772468,alpine_hut,residential,Ski- und Ferienhaus Obergestelen,1796,http://www.sac-bluemlisalp.ch/typo3/index.php?id=113,Katrin + Bruno Reiss,,,,Zweisimmen,CH,3770,Obergestele,999a,,,no,,,,,,,,,,no,,,,,33,,,,,,,
7.43975065,46.71805615,alpine_hut,yes,Untere Gantrischhütte,1510,,,restaurant,,,Sangernboden,CH,1738,Untere Gantrischhütte,59,,,,,,,,,,hipped,,,,,,,,,,,,,,,
7.45062316569715,46.7561846494552,alpine_hut,residential,Stockhütte,1264,https://www.stockhuette-gurnigel.ch/,Genossenschaft Jugend- und Ferienhaus Stockhütte,,,,Rüti bei Riggisberg,CH,3099,Stockhütte,1,,,,,,,,,,,,,,,,,,,,,,,,,
7.74183955113577,46.4836354289158,alpine_hut,yes,Fründenhütte,2562,https://www.fruendenhuette.com/,,,+41 33 675 14 33,Q1472303,,,,,1,,,,,,,,,,,,,,,Fründen,,,,,,,,,,
7.8627122864213,46.5700504016801,alpine_hut,yes,Schilthornhütte,2432,,,,,,Mürren,CH,3825,Engital,925b,,,,,,,,,,,,,,,,,,,,,,,,,
8.0056906,46.5547132,alpine_hut,yes,Mönchsjochhütte,3657,http://www.moenchsjoch.ch/,,,,Q1958012,,,,,,,,,,,,,,,,,,,,,,,,,,,,,,
7.89342727280547,46.719730599814,alpine_hut,yes,Balmhütte,1683,,,,,,,,,,,,,,,,,,,,,,,,,,,,,,,,,,,
7.96065698925829,46.5893756441046,alpine_hut,yes,Berghaus Grindelwaldblick,2109,https://www.grindelwaldblick.ch/,,restaurant,+41 33 855 13 74,,Grindelwald,CH,3818,Rotstoecki,354e,,,wlan,66,,,,,,,,,,,,,yes,,,,,,,,
7.96885,46.6689843,alpine_hut,yes,Berghaus Männdlenen,2344,http://www.berghaus-maenndlenen.ch/,,restaurant,,Q819716,,,3816,Am Faulhornweg,,,,,,,,,,,,,,,http://www.berghaus-maenndlenen.ch/,,,,,,,,,,,
8.1020431,46.440448,alpine_hut,yes,Gletscherstube Märjelen,,http://gletscherstube.ch,,,+41 27 971 47 83,,,,,,,,,,,,,,,,,,yes,outside,,,,,,,,,customers,,,
8.13531835,46.4509939,alpine_hut,yes,Burghütte,1751,http://www.burghuette.ch/,,,"+41279714027;+41279711182",,,,,,,,,,,,,,,,,,,,,,,,,,,,,,,
8.17302928245081,46.5260533503647,alpine_hut,yes,Oberaarjochhütte,3258,http://www.oberaarjochhuette.ch,SAC,,,Q16101794,,,,,,de:Oberaarjochhütte,,,,,,,,,,,,,,,,,,,,,,,,
8.42787759398072,46.4347017671926,alpine_hut,yes,Rifugio Maria Luisa,2157,https://www.rifugiomarialuisa.it/,CAI Sezione di Busto Arsizio,,+39 0324 63086,Q3935556,,,,,,it:Rifugio Maria Luisa,info@rifugiomarialuisa.it,,,,,,,,,,,,,,,,,,,,,,,
8.0191718345285,46.878025250286,alpine_hut,yes,Ferienhaus Rothornblick,,http://www.rothornblick-fluehli.ch,CVJM / Cevi,,,,,,,,,,verwaltung@rothornblick-fluehli.ch,,,,,,,,,,,,,,,,,,,,,,,
8.31883955,46.7789221,alpine_hut,yes,Berggasthaus Tannalp,,http://www.tannalp.ch/gasthaus.html,,restaurant,+41 41 669 12 41,,Melchsee-Frutt,,6068,Tannalp,1,,,,,,,,,,,,,,,,,,,,,,,,,
8.41067345343365,46.8409574083066,alpine_hut,yes,Brunnihütte SAC,1860,,SAC,restaurant,,Q992911,,,,,,,,,,,,"Urner, Schwyzer und Unterwaldner Alpen",,,,,,,http://www.brunnihuette.ch,,,,,,,,,,,
8.42801585,46.86988435,alpine_hut,yes,Berggasthaus Bannalpsee,1610,,,restaurant,,,,,,,,,,,,,,,,,,,,,,,,,,,,,,,,
8.43687155,46.87127475,alpine_hut,yes,Chrüzhütte,1713,,,,,,,,,,,,,,,,,,,,,,,,,,,,,,,,,,,
8.17755271325799,46.9686006498108,alpine_hut,yes,Tripolihütte,1571,,,,,,,,,,,,,,,,,,,,,,,,,,,,,,,,,,,
8.20880738674172,46.9833525502374,alpine_hut,yes,Grotzli,,,,,,,,,,,,,,,,,,,,,,,,,,,,,,,,,,,,
8.27598378829198,47.0101762005401,alpine_hut,yes,Tannehüsli,,,,,,,,,,,,,,,,,,,,Tannehüsli,,,,,,,,,,,,,,,,
7.14896836032277,47.1352100868217,alpine_hut,yes,Bergerie du Haut,1314,,,,,,Lamboing,CH,2516,Mont Sujet,89,,,,,regional,,,,,,,,,,,,,,,,,,,,
7.15785342051423,47.1607111987507,alpine_hut,yes,Jurahaus,1322,,SAC Biel/Bienne,,,,Les Prés-d'Orvin,CH,2534,Les Plans-Dessus,267,,,,,,,,,Jurahaus,,,,,http://www.sac-biel.ch/de/huetten/16-jurahaus,,,,,,,,,,,
7.26629107188165,47.2154379510205,alpine_hut,yes,Cabane La Rochette,1280,https://www.cas-prevotoise.ch/cabanes/rochette.php,CAS,,,,Malleray,CH,2735,Chemin des Marguerites,14,,,no,,,,,,,,,,,,,,,,,,,,,,
7.38201130508496,47.2831715032177,alpine_hut,yes,Cabane des Gorges,520,,CAS,,,,Moutier,CH,2740,Rue des Gorges,30,,,,,,,,,,,,,,,,,,,,,,,,,
7.22277702285289,47.3861070507216,alpine_hut,yes,Cabane des Ordons,917,,CAS Jura,,,,,,,,,,,,,,,,,,,,,,,,,,,,,,,,,
7.30944991320851,47.4582900781599,alpine_hut,yes,La Birgmatt,,,,shelter,,,,,,,,,,,,,,,,,,,,,,,,,,,,,,,,
7.72083245,47.37779775,alpine_hut,house,SAC-Hütte Waldweid,,,SAC,,,,,,,,,,,,,,,,"Sa 14:00-24:00; Su 00:00-16:00",,,,yes,,,,,,,,,,,,,
8.66727820669224,46.1225346003394,alpine_hut,yes,Rifugio Al Legn,1785,http://www.legn.ch,Associazione Amici della Montagna Brissago,,+41 91 793 44 20,Q2152661,,,,,,it:Capanna Al Legn,,no,12,,,,,,,,,outside,,,,,12,,,,,,,
8.78880508951579,46.200693800201,alpine_hut,yes,Capanna Ristorante Cimetta,,,,restaurant,,,,,,,,,,,,,,,,,,,,,,,,,,,,,,,,
8.67918322716805,46.3153402505816,alpine_hut,yes,Rifugio Alpe Spluga,1838,,,,+41 91 753 2349,,,,,,,,info@alpespluga.ch,,,,,,,,,,,,http://www.alpespluga.ch,,,,,,,,,,,
8.68880454957422,46.3660947615211,alpine_hut,yes,,,,,,,,,,,,,,,,,,,,,,,,,,,,,,,,,,,,,
8.7044154136393,46.327495349921,alpine_hut,yes,Capanna Osola,1418,http://www.capannaosola.ch/,,,,Q3656683,,,,,,it:Capanna Alpe d'Osola,,,,,,,,,,,,,,,,,18,,,,,,,
8.70517189279424,46.3413434017922,alpine_hut,yes,Rifugio Sambuco,2000,http://www.capannaosola.ch/,Comunità Compadroni Alpe Osola,,,,,,,,,,,,10,,,,,,,,,,,,,,,,,,,,,
8.71096874229964,46.4060497500429,alpine_hut,yes,,,,,,,,,,,,,,,,,,,,,,,,,,,,,,,,,,,,,
8.88109379954133,46.108240150013,alpine_hut,yes,Capanna del Tamaro,1867,http://www.utoe.ch/?id=469,UTOE Bellinzona,restaurant,,Q3656743,,,,,,it:Capanna del Tamaro,,,53,regional,Rifugio Tamaro,,,,,,yes,,,,,,,,JPIiq297mpN-tvb8zbmY7w,,,,,
8.79671300588686,46.1985815650604,alpine_hut,yes,Capanna Ristorante Lo Stallone,,,,restaurant,,,,,,,,,,,,,,,,,,,,,,,,,,,,,,,,
9.08914031993003,46.086461202172,alpine_hut,yes,Capanna San Lucio,1541,http://capannasanlucio.ch,Propaganda turistica Bogno,restaurant,+41 91 9441829,Q3656726,Bogno,CH,,,,it:Capanna San Lucio,info@capannasanlucio.ch,,22,regional,,,Jan-Dec,,,,yes,,,Passo San Lucio,,,,,"QLi5Q3peY1HmZOqJvK7b-w;jQd6EgWoKINz8kkyJ98F_A",,,,,
9.08974231745953,46.08707651372,alpine_hut,yes,Rifugio San Lucio,1554,,Comune di Cavargna,restaurant,+39 338 3110521,,Cavargna,IT,,,,,,,44,regional,,,,,,"Ex caserma della Guardia di Finanza. Il rifugio che ospitava, aperto il 30 luglio 2000, è chiuso dal 2013.",,,,Passo San Lucio,,,,,kbWeP5JlUpXjgBrX350nSg,,,,,
9.07974859603264,46.1073552956728,alpine_hut,yes,Rifugio Garzirola,1974,,,restaurant,,,,,,,,,,,,regional,,,,,,"Il locale invernale è arredato con un tavolo, qualche sedia e un camino, con provvista di legna.",,,,,,,,,"IH1oLf9MTdQD3dcZ3b_r8w;NqU2DsZGzfVE9xK-82WNHQ",,,,,
8.97440719830804,46.205535500056,alpine_hut,hut,,,,,,,,,,,,,,,,,,,,,,,,,,,,,,,,,,,,,
8.93299808154856,46.2483485006399,alpine_hut,yes,Capanna Alpe di Lèis,1801,https://www.patriziatopreonzo.ch/capanne.html,Patriziato di Preonzo,,,Q3656686,,,,,,it:Capanna Alpe di Lèis,,no,,,,,,,,,,,,,,,,,,,,,,
8.95703322482032,46.2450430011501,alpine_hut,yes,Capanna Alpe di Garíss,1422,https://www.patriziatopreonzo.ch/capanne.html,Patriziato di Preonzo,,,,,,,,,,,no,,,,,,,,,,,,,,,,,,,,,,
9.15990220111072,46.1667512999525,alpine_hut,yes,Rifugio San Jorio,1984,http://www.rifugiosjorio.it/,"Associazione ""Operazione Mato Grosso""",,"+39 349 7279924; +39 0344 50539",,Gravedona ed Uniti,IT,,,,,info@rifugiosjorio.it,,25,,,,"""Apertura estiva""",,,Ex caserma della Guardia di Finanza. Telefono gestore: 0344 30539 / 031 211815 / 0344 32341,,,,Passo San Jorio,,,,,,,,,,
9.23395065934597,46.3110023996194,alpine_hut,yes,,,,,,,,,,,,,,,,,,,,,,,,,,,,,,,,,,,,,
9.24833675907229,46.3121796497863,alpine_hut,yes,,,,,,,,,,,,,,,,,,,,,,,,,,,,,,,,,,,,,
9.24843729033373,46.3122216501402,alpine_hut,yes,,,,,,,,,,,,,,,,,,,,,,,,,,,,,,,,,,,,,
9.17202919806942,46.3261352500628,alpine_hut,yes,Groven,,,,,,,,,,,,,,,,,,,,,,,,,,,,,,,,,,,,
9.24039698318358,46.3246656050919,alpine_hut,yes,,,,,,,,,,,,,,,,,,,,,,,,,,,,,,,,,,,1,,
9.24325067613555,46.3244534993954,alpine_hut,yes,,,,,,,,,,,,,,,,,,,,,,,,,,,,,,,,,,,1,,
9.26428285,46.3241808,alpine_hut,,Campel Bass,,,,,,,,,,,,,,,,,,,,,,,,,,,,,,,,,,,,
9.2716839,46.33025325,alpine_hut,,Campel Alt,,,,,,,,,,,,,,,,,,,,,,,,,,,,,,,,,,,,
9.27180957108954,46.3306264506368,alpine_hut,yes,,,,,,,,,,,,,,,,,,,,,,,,,,,,,,,,,,,,,
8.48423911275934,46.5449966707112,alpine_hut,yes,Rotondohütte,2570,https://www.rotondohuette.ch/,SAC,,+41 887 16 16,Q2168881,,,,,,,info@rotondohuette.ch,,,,,"Urner, Schwyzer und Unterwaldner Alpen",,,,,,,,,,,,,,,,,,
8.78602818302737,46.4174476207075,alpine_hut,yes,Rifugio Alpe Sponda,1997,http://www.satchiasso.ch/capanna/index.html,SAT Chiasso,,,Q3656679,,,,,,it:Capanna Alpe Sponda,,,52,,,,,,,,,,,,,,,,,,,,,
8.58245685,46.63145155,alpine_hut,yes,Schlafen im Stroh,1444,https://www.pferdestall-reussen.ch/401.html,,,+41 41 887 17 34,,,,,,,,,,,,,,,,,,,,,,,,,,,,,,,
9.00507442983993,46.6345170812067,alpine_hut,yes,Camona da Terri,2170,http://www.terrihuette.ch,SAC - CAS,,,Q1669515,,,,,,,,,110,,,,,Terrihütte,,,,,,,,,,+41 81 943 1205,,,,,,
8.49584165,46.80838455,alpine_hut,yes,Hohbiel,1673,https://www.alp-hobiel-surenen.ch/,,,,,,,,,,,,,,,,,,,,,,,,,,,,,,,,,,
8.51515875952028,46.8255503498487,alpine_hut,yes,Blackenalp,,,,,,,,,,,,,,,,,,,,,,,,,,,,,,,,,,,,
8.4627850190972,46.8461928087885,alpine_hut,yes,Rugghubelhütte SAC,2290,https://www.rugghubel.ch/,SAC - CAS,,+41 41 637 20 64,Q1755421,,,,,,de:Rugghubel,,no,,,,"Urner, Schwyzer und Unterwaldner Alpen",,,,,,,,,,,,,,,,,,
8.44305465139628,46.8689545000138,alpine_hut,yes,Berggasthaus Urnerstafel,,,,,,,,,,,,,,,,,,,,,,,,,,,,,,,,,,,,
8.52499613323302,46.8577654532137,alpine_hut,yes,Gitschenhörelihütte,2325,,,,,,,,,,,,,,,,,,,,,,,,,,,,,,,,private,,,
8.43980415,46.9030813,alpine_hut,yes,Berggasthaus Haldigrat,,,,restaurant,,,,,,,,,,,,,,,,,,,,,,,,,,,,,,,,
8.5668879,46.89012215,alpine_hut,yes,Geisshittae,,,,,,,,,,,,,,,,,,,,,,,,,,,,,,,,,,,,
8.57313763667958,47.0038316499259,alpine_hut,yes,Bärfallen,,http://baerfallen.ch/,,restaurant,+41793734202,,,,,,,,,,,,,,,,,,,,,,,,,,,,,,,
8.64895615941637,46.9562468005671,alpine_hut,yes,,,,,,,,,,,,,,,,,,,,,,,,,,,,,,,,,,,,,
8.6648531,47.0661037,alpine_hut,yes,SAC Clubhaus Bärenfang,,https://www.sac-zug.ch/pages/huetten/baerenfang.php,SAC Sektion Rossberg,,+41 41 781 09 51,,,,,,,,,,,,,,,,,,,,,,,,,,,,,,,
8.85419925917584,46.9829759997743,alpine_hut,yes,Alpwirtschaft Roggenloch,,http://www.roggenloch.ch,,restaurant,,,,,,,,,,,,,,,"Jun 1-Oct 15 08:00-24:00; ""Anfang und End der Saison ist jedes Jahr anders.""",,,,,,,,,,,,,,,,,
8.9766158220553,46.9481176514132,alpine_hut,yes,Ortstockhaus,1772,https://ortstockhaus.ch/,,,+41 79 551 43 86,Q29479660,,,,,,,,,,,,,"Jul-Oct Mo-Sa 10:00-24:00, Su 10:00-17:30",,,,,,,,,,,,,,,,,
9.09915475,46.9605456,alpine_hut,yes,Naturfreundehaus Mettmen,,https://www.mettmen.ch/,,cafe,,,,,,,,,,,,,,,,,,,yes,,,,,,,,,,,,,
9.34866342882573,46.4475522459286,alpine_hut,yes,Rifugio Pasini,,,,,,,,,,,,,,,,,,,,,,,,,,,,,,,,,,,,
9.35408547806882,46.4419635577731,alpine_hut,yes,Rifugio Camanin,,,,,,,,,,,,,,,,,,,,,,,,,,,,,,,,,,,,
9.35158534228988,46.4462372159986,alpine_hut,yes,Rifugio Mai Tardi,,,,,,,,,,,,,,,,,,,,,,,,,,,,,,,,,,,,
9.79649893809202,46.5668854134576,alpine_hut,hut,,,,,,,,,,,,,,,,,,,,,,,,,,,,,,,,,,,,,
9.55239713057215,46.5831117994785,alpine_hut,yes,Alp Somtgant,2119,,,,,,,,,,,,,,,,,,,,,,,,,,,,,,,,,,,
9.68502395,46.71879695,alpine_hut,yes,Madreuil,,,,,,,,,,,,,,,,,,,,,,,,,,,,,,,,,,,,
9.2754247968696,46.9154897502377,alpine_hut,yes,Sardonahütte,2158,,SAC,,,Q2224797,,,,,,,,no,,,,,,,,,,,,,,,,,,,,,,
9.48038914178778,46.7982888996918,alpine_hut,yes,Emser Skihütte,1940,http://www.snowsport-ems.ch,Ski- und Snowboardclub Domat - Ems,,,,Domat/Ems,CH,7013,Alp Urtgicla,,,,,,,,,,,,,,,,,,,,,,,,,,
9.15734217609997,47.0390219003715,alpine_hut,yes,,,,,,,,,,,,,,,,,,,,,,,,,,,,,,,,,,,,,
9.25055929992287,47.0342445000021,alpine_hut,yes,SAC Spitzmeilenhütte,2087,https://www.spitzmeilenhuette.ch/,,,+41 81 733 22 32,Q14544685,,,,,,de:Spitzmeilenhütte,info@spitzmeilenhuette.ch,,,,,,,,,,,,,,,,,,,,,,,
9.62006047658178,46.7678648613348,alpine_hut,yes,Hörnlihütte,2511,,,restaurant,,Q1651829,,,,,,,,,,,,,,,,,,,,,,,,,,,,,,
9.79664785002128,46.8131756,alpine_hut,yes,,,,,,,,,,,,,,,,,,,,,,,,,,,,,,,,,,,,,
9.61898175,47.00037495,alpine_hut,yes,Maiensäss Valcaus,,,,,+41 (0)81 325 11 69,,,,,,,,,,,,,,,,,,,,,,,,,,,,,,,
8.9576755,47.1274256,alpine_hut,yes,Alphütte Gross Feldrederten,1300,http://feldrederten.ch/,,,,,,,,,,,,,8,,,,May-Sep,,,,,,,,yes,,,,,,,,,
8.95696672635035,47.2851338503843,alpine_hut,yes,Bergrestaurant Farneralp,,https://www.farneralp.ch/,,,,,,,,,,,,,,,,,,,,,,,,,,,,,,,,,,
9.09264371273905,47.1898675501932,alpine_hut,yes,Obere Bogmen,1374,,,,,,,,,,,,,,,,,,,,,,,,,,,,,,,,,,,
9.29460902393661,47.1483532494402,alpine_hut,yes,Alp Tschingla,,https://www.tschingla.ch,,restaurant,+41 76 804 07 88,,,,,,,,,,28,regional,,,May-Oct,,,,,,,,,,,,,,,,,
9.2544338892108,47.1702290999466,alpine_hut,yes,Wildmannli Hütte,,http://www.wildmannli.ch,,,,,,,,,,,,,,,,,,,,,,,,,,,,,,,,,,
9.33018265213606,47.1351892000468,alpine_hut,yes,,,https://www.luesis.ch/,,,+41 81 7351172,,,,,,,,,,,,,,,,,,,,,,,,,,,,,,,
9.35058667845408,47.2373928996323,alpine_hut,yes,Berggasthaus Schafboden Alpstein,1729,,,restaurant,,,,,,,,,,,,,,,,,,,,,,,,,,+41 71 999 13 45,,,,,info@schafboden.ch,http://www.schafboden.ch
9.37615805799228,47.233212899777,alpine_hut,yes,Zwinglipasshütte,1999,http://www.sac-toggenburg.ch/clubhuette/,,,+41 71 999 24 36,Q55565442,,,,,,,,,,,,,,,,,,,,,,,,,,,,,,
9.328846822647,47.2487120747278,alpine_hut,yes,Berggasthaus Tierwies,,http://www.tierwies.ch/,Familie Schoop,restaurant,+41 71 364 12 35,,,,,,,,,,,,,,,,,,,,,,,,,,,,,,,
9.3450977949868,47.2496092499911,alpine_hut,yes,Berggasthaus Alter Säntis,2502,https://www.altersaentis.ch/,Ruedi und Claudia Manser-Abderhalden,restaurant,+41 71 799 11 60,,,,,,,,info@altersaentis.ch,,,,,,May-Oct,,,,,,,,,,,,,,,,,
9.36510236923631,47.2430876511502,alpine_hut,yes,Berggasthaus Rotsteinpass,2124,https://www.rotsteinpass.ch/,Cäcilia und Albert Wyss-Räss,restaurant,+41 71 799 11 41,Q1287622,,,,,,de:Rotsteinpass,info@rotsteinpass.ch,,,regional,,,,,,,,,,,,,,,,,,,,
9.37311645000625,47.2594667042123,alpine_hut,yes,Berggasthaus Mesmer,1613,http://www.mesmer-ai.ch,Monika und Bruno Hehli-Räss,restaurant,+41 71 799 12 55,,,,,,,,info@mesmer-ai.ch,no,,,,,,,,,,,,,,,,,,,,,,
9.3854664,47.255759,alpine_hut,yes,Meglisalp,1520,https://www.meglisalp.ch/,Familie Gaby und Sepp Manser-Neff,restaurant,+41 71 799 11 28,Q1917181,,,,,,de:Meglisalp,info@meglisalp.ch,,,,,,,,,,,,,,,,,,,,,,,
9.39131960138873,47.2761509363806,alpine_hut,yes,Schäfler,1924,https://www.schaefler.ch/,,restaurant,+41 71 799 11 44,,,,,,,,,,,,,,,,,,,,,,,,,,,,,,,
9.40854825,47.2495616,alpine_hut,yes,Fählenalp,,,,,,,,,,,,,,,,,,,,,,,,,,,,,,,,,,,,
9.4184116,47.24332565,alpine_hut,yes,Roslenalphütte,1767,,,,,,,,,,,,,,,,,,,,,,,,,,,,,,,,,,,
9.4121386,47.2578,alpine_hut,yes,Widderalp,1644,,,restaurant,,,,,,,,,,,,,,,,,,,,,,,,,,,,,,,,
9.42230854494417,47.2548294000515,alpine_hut,yes,Hundsteinhütte SAC,1551,http://www.hundsteinhuette.ch/,SAC,,+41 71 799 15 81,Q1637691,,,,,,de:Hundsteinhütte,,,,,,"Glarner und St. Galler Alpen, Alpstein",,,,,,,,,,,,,,,,,,
9.43325485,47.2553618,alpine_hut,yes,Furgglenalp,1500,http://www.furgglenalp.ch,,,+41 71 799 16 37,,,,,,,,,,,,,,,,,,,,,,,,,,,,,,,
9.41211259113211,47.2832188500209,alpine_hut,yes,Berggasthaus Ebenalp,1644,http://www.gasthaus-ebenalp.ch,,restaurant,,,,,,,,,infos@gasthaus-ebenalp.ch,,,,,,,,,,,,,,,,,,,,,,,
9.4190702,47.28914535,alpine_hut,yes,Alp Bommen,,https://www.alpbommen.ch/,,restaurant,,,,,,,,,,,,,,,,,,,yes,,,,,,,,,,,,,
9.41620725,47.3681972,alpine_hut,,Waldhüsli,,,,,,,,,,,,,,,,,,,,,,,,,,,,,,,,,,,,
9.56844870391439,47.1861364999429,alpine_hut,yes,Gafadurahuette,,,L.A.C,,,,,,,,,,,,,,,,,,,,,,,,,,,,,,,,,
9.56635721060633,47.1918117721402,alpine_hut,yes,Uli Mariss Hütte,,,,,,,,,,,,,,,,,,,,,,,,,,,,,,,,,,,,
9.59103824993324,47.2091949000018,alpine_hut,yes,Hütte Schiverein Tisis,,,,fast_food,,,,,,,,,,,,regional,,,,,,,,,,,,,,,,,,,,
9.60046132462759,47.2095737257073,alpine_hut,yes,Naturfreundehaus Feldkircher Hütte,,,,restaurant,,,,,,,,,,,,,,,,,,,,,,,,,,,,,,,,
9.4984569,47.3096439,alpine_hut,yes,Diepoldsauer Schwamm,1245,,,,,,,,,,,,,,,,,,,,,,,,,,,,,,,,,,,
10.0555948538191,46.441349157938,alpine_hut,yes,Rifugio Tridentina,,,,,,,,,,,,,,,,,,,,,,,,,,,,,,,,,,,,
10.0733928763841,46.5548162004021,alpine_hut,yes,Rifugio Cassana,2601,,,,,,,,,,,,,,,,,,,,,,,,,,,,,,,,,,,
9.92183023887993,46.7208680002378,alpine_hut,yes,Berggasthaus Dürrboden,2007,http://www.duerrboden.ch/,,restaurant,+41 81 416 34 14,Q1272134,,,,,,de:Dürrboden,info@duerrboden.ch,,,regional,,,,,,,,,,,,,,,,,,,,
10.0317887358045,46.608389249634,alpine_hut,yes,Varusch,,,,,,,,,,,,,,,,,,,,,,,,,,,,,,,,,,,,
10.1591354997156,46.6795818500056,alpine_hut,yes,Naturfreundehaus Ova Spin,,,,,,,,,,,,,,,,,,,,,,,,,,,,,,,,,,,,
10.4141563480467,46.6480750503252,alpine_hut,yes,Stierberghütte,2176,,,,,,,,,,,,,,,,,,,,,,,,,,,,,,,,,,,
10.4124934877526,46.6618804995361,alpine_hut,,Starlexhütte - Rifugio Starlex,2118,,,,,,,,,,,,,,,,,,,Starlexhütte,,,,,,,,,,,,,,,,
10.1425628198009,46.8071724501796,alpine_hut,yes,Alp Suot,,,,,,,,,,,,,,,,,,,,,,,,,,,,,,,,,,,,
10.1162838486491,46.8682879152965,alpine_hut,yes,Wiesbadener Hütte,2443,http://www.wiesbadener-huette.com/,"Heinrich Lorenz, Landle 18a, 6563 Galtür, Austria",,+43 55 5842 33,Q2569307,Partenen,AT,6794,Ochsental,89a,de:Wiesbadener Hütte,wiesbadener@gmx.net,,,,,,,,,,,,,,,,,,,,,,,
10.17650126552,46.8864169692501,alpine_hut,yes,Jamtalhütte,2165,,,,,Q1625181,,,,,,de:Jamtalhütte,,,,,,,,,,,,,,,,,,,,,,,,
10.334579603807,46.7655779498925,alpine_hut,yes,Chamonna Lischana,2500,http://lischanahuette.ch/,Club Alpin Svizzer Secziun Engiadina Bassa,,+41 81 864 95 44,Q1827882,,,,,,,,,,,,,"Jun Th[3] - Oct Su[2] ""Opening dates in start and end of season may differ, check for certainty the website.""",Lischanahütte,,,,,,,,,,,,,,,,
10.2596065331216,46.9097393996721,alpine_hut,yes,Heidelberger Hütte,2264,http://www.heidelberger-huette.at,DAV,,+43 664 4253070,Q680434,,,,,,de:Heidelberger Hütte,info@heidelberger-huette.at,no,135,,,,,,,,,,,,,,,,,,,,,
