X,Y,tourism,name,website,phone,addr:city,addr:postcode,addr:street,addr:housenumber,email,operator,fax,fee,internet_access,caravans,stars,tents,addr:country,contact:phone,contact:website,wheelchair,internet_access:fee,capacity,area,contact:email,opening_hours,camp_site,access,alt_name,contact:fax,contact:mobile,ele,building
6.06732240826465,46.2012197469978,camp_site,Camping du Bois-de-Bay,,+41 22 341 05 05,,,,,,,,,,,,,,,,,,,,,,,,,,,,
6.06618726062836,46.3337324257633,camp_site,Les Genêts,,+33 4 50 42 84 57,Gex,01170,Avenue des Alpes,400,les.2b@hotmail.fr,Municiplaité,+33 4 50 41 68 77,,,,3,,FR,,,,,,,,May 01-Sep 30,,,,,,,
6.11993139713183,46.3759872239836,camp_site,Le Fleutron,https://www.camping-indigo.com/fr/camping-indigo-divonne-le-fleutron,+33 4 50 20 01 95,,,,,,INDIGO,,,,,3,,,,,,,,,,,,,,,,,
6.13727916357233,46.3897249335597,camp_site,Caravaning En Vendôme,http://www.larippe.ch/net/net_larippe.asp?NoOFS=5726&Sty=&NumStr=37,,La Rippe,1278,,,,Commune de La Rippe,,yes,,,,,,,,,,101,,,,,,,,,,
6.19297352770289,46.245396277795,camp_site,TCS Camping Genève - Vésenaz,https://www.tcs.ch/de/camping-reisen/camping/campingplaetze/standorte/genf-vesenaz.php,+41 22 752 12 96,,,,,camping.geneve@tcs.ch,TCS,,yes,wlan,,5,,,,,,,,,,"08:30-12:00,14:30-19:00; Jul 02-Aug 20: 08:00-21:00; Oct 10-Mar 23 off",,,Camping TCS de la Pointe-à-la-Bise,,,,
6.24174225107583,46.303941202508,camp_site,Camping,,,,,,,,,,,,,,,,,,,,,,,,,,,,,,
6.26186195814428,46.324408854116,camp_site,Camping municipal Lemania,,,,,,,,,,,,,,,,,,,,,,,,,,,,,,
6.49086922855082,46.3171474733181,camp_site,Le Lac à Jojo,,,,,Route du Lac,130,,,,,,,,,,+33 4 50 70 53 65,http://www.lacajojo.com/,,,,,,,,,,+33 4 50 70 71 97,,,
6.3489729693023,46.3584670985505,camp_site,Le Chant'Oiseau,,,,,Route d'Yvoire,365,,,,,,,,,,+33 4 50 72 81 20,,,,,,,,,,,,,,
6.34973902112398,46.359988931178,camp_site,Bellevue,,,,,,,,,,,,,,,,+33 4 50 72 83 67,http://www.camping-bellevue-excenevex.com/,,,,,camping.bellevue.e@wanadoo.fr,,,,,,,,
6.35657927373409,46.3444413676385,camp_site,Pourvoirie des Ellandes,,,,,Route du Bord du Lac,1418,,,,,,,,,,+33 4 50 72 98 95,http://www.camping-lac-leman.com/presentation.php,,,,,,,,,,,,,
6.35666483855463,46.3455802456167,camp_site,Le col Vert,,,,,,,,,,,,,,,,,,,,,,,,,,,,,,
6.35883799331786,46.3451130259057,camp_site,La Pinède,,,,,Avenue de la Plage,10,,Campéole,,,,,3,,,+33 4 50 72 85 05,https://www.campeole.com/fr/camping-campeole/la-pinede,,,,,pinede@andretriganogroupe.com,,,,,,,,
6.39282568311816,46.3389784073864,camp_site,Camping La Brise du Léman,,,Sciez,74140,,,,,,,,,,,,,,,,,,,,,,,,,,
6.39649234761728,46.3401940675978,camp_site,Camping de La Renouillère,,+33 4 50 72 73 39,SCIEZ SUR LEMAN,74140,Chemin des hutins vieux,655,,,,,,,,,,,,,,,,,,,,,,,,
6.3967086672652,46.3422689344107,camp_site,Le Grand Foc,,+33 4 50 72 62 70,Sciez,74140,,,,Rene Mansey,,,,,,,,,,,,,,,,,,,,,,
6.39777703497617,46.34088557223,camp_site,Camping du Chatelet,http://www.camping-chatelet.com,+33 4 50 72 52 60,SCIEZ SUR LEMAN,74140,Chemin des hutins vieux,658,,,,,,,,,,,,,,,,,,,,,,,386,
6.410374216864,46.3512585770575,camp_site,Camping du Lac,http://www.camping-du-lac-anthy.com/,,,,Route du Clos,1,camping.anthy@gmail.com,,,,,,2,,,+33 4 50 72 36 58,,,,,,,,,,,,,,
6.32852722464644,46.3673879478272,camp_site,Camping Mathieu - Léman I,,,,,Route d'Excenevex,212,,,,,,,2,,,+33 4 50 72 84 31,http://www.camping-lac-leman-mathieu.com/,,,,,campingmathieu@yahoo.fr,,,,,+33 4 50 72 96 33,+33 6 56 79 25 77,,
6.33012134999805,46.3672041859098,camp_site,Camping Mathieu - Léman II,,,,,Route d'Excenevex,212,,,,,,,,,,+33 4 50 72 84 31,http://www.camping-lac-leman-mathieu.com/,,,,,campingmathieu@yahoo.fr,,,,,+33 4 50 72 96 33,+33 6 56 79 25 77,,
6.33160335130514,46.3669542525679,camp_site,CCAS Les Huchettes,,,,,Route d'Excenevex,434,,,,,,,,,,,,,,,,,,,,,,,,
6.47301764413459,46.3567610071926,camp_site,Camping Le Lac Noir,,,Thonon-les-Bains,74200,Avenue de Senevulaz,28,,,,yes,wlan,,,,,,,,,100,,,,,,,,,,
6.5020215732789,46.3969922024558,camp_site,Le Disdillou,,,,,Avenue de Saint-Disdille,98,,,,,,,,,,+33 4 50 26 13 59,http://ledisdillou.com/cms/,,,,,ledisdillou@orange.fr,,,,,,+33 6 24 09 30 56,,
6.50177616396775,46.3979797247425,camp_site,Camping CCAS EDF,,,,,Avenue de Saint-Disdille,114,,,,,,,,,,+33 4 50 71 50 89,http://gds.ccas.fr/espace_vacances.php/centre/?centre=500,,,,,,,,private,,,,,
6.50812434156904,46.3995635925901,camp_site,Camping Saint-Disdille,,,,,,,,,,,,,3,,,+33 4 50 71 14 11,http://www.disdille.com/fr/,,,537,,,,,,,+33 4 50 71 93 67,,,
6.51977186119275,46.4006179335478,camp_site,Camping municipal Blanche Neige,,,,,Route de la Dranse,821,,,,,,,,,,+33 4 50 26 46 55,,,,,,,,,,,,,,
6.52959688728765,46.3938909793186,camp_site,Les Huttins,,,,,Rue de la Plaine,350,,,,,,,,,,+33 4 50 70 03 09,http://www.camping-leshuttins.com/,,,,,campingleshuttins@gmail.com,,,,,,,,
6.54994678446659,46.3716124212916,camp_site,Camping La Prairie,https://www.vacances-camping-lac-leman.fr/,,Champanges,74500,Rue de Savoie,18,,,,yes,,,,,,+33 4 50 81 08 02,http://www.campinglaprairie74.com/,,,,,sylvie.bochaton548@orange.fr,,,,,,+33 6 16 78 31 78,,
6.61922812677917,46.3767541314685,camp_site,Camping du Pré Bandaz,,,,,,,,,,,,,,,,+33 4 50 75 39 42,http://campingprebandaz.pagesperso-orange.fr/,,,,,contact@campingprebandaz.com,,,,,+33 4 50 75 39 42,+33 6 68 03 61 81,,
6.64592808804167,46.4004371540036,camp_site,Vielle Église,,,,,,,,,,,,,,,,,,,,,,,,,,,,,,
6.98375084638825,46.3163122833818,camp_site,,,,,,,,,,,,,,,,,,,,,,,,,,,,,,,
6.8996138885874,46.3571509964848,camp_site,Camping Au Grand-Bois,http://www.camping-au-grand-bois.ch/,,,,,,,,,,,,,,,,,,,,,,,,,,,,,
6.94156317824947,46.341459273577,camp_site,Domaine de la Roseraie,http://www.domainedelaroseraie.ch/,+41 24 466 54 77,Yvorne,1853,,,accueil@domainedelaroseraie.ch,Domaine de la Roseraie SA,,,,,,,,,,,,,,,,,,,,,,
6.93829001997144,46.3467904624409,camp_site,,,,,,,,,,,,,,,,,,,,,,,,,,,,,,,
6.94281112556265,46.346557990043,camp_site,Camping Clos de la George,http://www.closdelageorge.ch/,+41 24 466 58 28,Yvorne,1853,Les Ecots,3,info@closdelageorge.ch,,+41 24 466 28 66,,,,,,,,,,,,,,,,,,,,,
6.85986327584219,46.385938056453,camp_site,Rive Bleue,http://www.camping-rive-bleue.ch,,,,,,,,,yes,,,,,,,,,,,,,,,,,,,,
6.89415069468997,46.393048515147,camp_site,Camping Les Grangettes,http://les-grangettes.ch/,+41219601503,Noville,1845,Route des Grangettes,31,,Michel Siffert,,,wlan,,,,,,,,yes,,,,,,,,,,,
6.92119135714899,46.3950584073467,camp_site,Les Horizons Bleus,http://www.camping-club-vaudois.ch/camping-caravaning-les-horizons-bleus-villeneuve.html,+41 21 960 15 47,Villeneuve (VD),,,,horizon-bleu@camping-club-vaudois.ch,,+41 21 647 46 63,,,,,,,,,,,,,,,,,,,,,
6.96171223493801,46.3233797287266,camp_site,,,,,,,,,,,,,,,,,,,,,,,,,,,,,,,
7.33157211210158,46.0177250267618,camp_site,Camping forêt des Mélèzes,,,,,,,,Thierry & Vera Rausis,,yes,,,,,,,,,,,,,,,,,,,,
7.48567826703824,46.0271747201244,camp_site,,,,,,,,,,,,,,,,,,,,,,,,,,,,,,,
7.08009339252972,46.0972980744447,camp_site,Neivilles TCS Camping,,,,,,,,,,,,,,,,,,,,,,,,,,,,,,
7.10669774717088,46.1197827894665,camp_site,Ranch El Capio,,,,,,,,,,,,,,,,,,,,,,,,,,,,,,
7.14290186675551,46.078889059303,camp_site,La Prairie,,,,,,,,,,,,,,,,,,,,,,,,,,,,,,
7.16769394379787,46.1593063799942,camp_site,Camping de la Sarvaz,https://www.sarvaz.ch/,,,,,,,,,,,,,,,,,,,,,,,,,,,,,
7.20231605208963,46.2103366128081,camp_site,,,,,,,,,,,,,,,,,,,,,,,,,,,,,,,
7.24590119011167,46.0552280277419,camp_site,,,,,,,,,,,,,,,,,,,,,,,,,,,,,,,
7.28008514941707,46.205812412296,camp_site,Botza,http://www.botza.ch/,+41 (0)27 346 19 40,Vétroz,1963,Route du Camping,1,,,+41 (0)27 346 25 35,,,,,,,,,,,,,,,,,,,,,
7.31055495212008,46.2103385652247,camp_site,Camping Sedunum,,,,,,,,,,,,,,,,,,,,,,,,,,,,,,
7.31571889132904,46.211598648976,camp_site,Camping des Iles,,,,,,,,,,,,,,,,,,,,,,,,,,,,,,
7.07719806935792,46.2829170758792,camp_site,Frassettes,,,,,,,,,,,,,,,,,,,,,,,,,,,,,,
7.09854378603927,46.3975405246715,camp_site,La Toundra,,,,,,,,,,,,,,,,,,,,,,,,,,,,,,
7.13443856433383,46.3497374968828,camp_site,Atipic - Récré Active (Tipis),,,,,,,,,,,,,,,,,,,,,,,,,,,,,,
7.12579966491975,46.3548492745742,camp_site,Camping de la Murée,,,,,,,,,,,,,,,,,,,,,,,,,,,,,,
7.50679270909371,46.090382150009,camp_site,Camping Molignon,http://www.molignon.ch,+41 27 2831240,,,,,,,,,,,4,,,,,,,,,,,,,,,,,
7.49682593090377,46.1110217073152,camp_site,Camping d'Evolène,https://www.camping-evolene.ch/index.php/fr/,,Evolène,1983,Route de Lanna,,,,,yes,,,,,,,,,,,,,,,,,,,,
7.56937127795523,46.1704447828036,camp_site,Ilôt Bosquet,,,,,,,,,,,,,,,,,,,,,,,,,,,,,,
7.58912346602398,46.1884156774416,camp_site,,,,,,,,,,,,,,,,,,,,,,,,,,,,,,,
7.58278100056483,46.2176571936298,camp_site,,,,,,,,,,,,,,,,,,,,,,,,,,,,,,,
7.41495575978785,46.2377422861134,camp_site,Camping Valcentre,,,,,,,,,,,,,,,,,,,,,,,,,,,,,,
7.41530807477394,46.2941406132049,camp_site,Camping Anzère,,,,,,,,,,,,,,,,,,,,,,,,,yes,,,,,
7.47314005101403,46.2648942722443,camp_site,Camping Robinson,,,,,,,,,,,,,,,,,,,,,,,,,,,,,,
7.48154005352582,46.3047433043656,camp_site,Camping Moubra,,,,,,,,,,,,,,,,,,,,,,,,,,,,,,
7.56494448302831,46.3004801249047,camp_site,Swiss-Plage,,,,,,,,,,,,,,,,,,,,,,,,,,,,,,
7.61088627008741,46.3077085589541,camp_site,Camping Monument,,,,,,,,,,,,,,,,,,,,,,,,,,,,,,
7.63746992641218,46.2989127009924,camp_site,Camping Bella-Tola,https://www.bella-tola.ch/,+41 27 473 14 91,Susten,3952,Waldstrasse,133,,,,,,,,,,,,,,,,,,,,,,,,
7.6580608638411,46.2986642812228,camp_site,Gemmi,,,,,,,,,,,,,,,,,,,,,,,,,,,,,,
7.62310107846403,46.3815838704658,camp_site,Camping Sportarena Leukerbad,,,,,,,,,,,,,,,,,,,,,,,,,,,,,,
7.82713415288321,46.1931698949079,camp_site,Grächenbiel,,,Niedergrächen,,,,,,,yes,,,,,,,,,,43 Plätze,yes,,,,,,,,,
7.740047539512,46.3071477048038,camp_site,Rhone_camping,,,,,,,,,,,,,,,,,,,,,,,,,,,,,,
7.79511015091899,46.3030318980676,camp_site,Simplonblick,,,,,,,,,,,,,,,,,,,,,,,,,,,,,,
7.80470664724603,46.3020550336738,camp_site,Santa Monica,,,,,,,,,,,,,,,,,,,,,,,,,,,,,,
7.87212553606722,46.2989586890836,camp_site,Camping & Schwimmbad Mühleye,http://www.camping-visp.ch,+41 27 946 20 84,Visp,3930,Mühleye,7,info@camping-visp.ch,,,,,,,,,,,,,,,,,,,,,,,
7.93333668037196,46.3022673883693,camp_site,Camping Brigerbad,,,,,,,,,,,,,,,,,,,,,,,,,,,,,,
7.99334587099942,46.3087803608076,camp_site,Camping Geschina,http://www.geschina.ch/,+41 27 923 06 88,Brig,3900,Geschinastrasse,41,geschina@bluewin.ch,Fam. Eyer & Schmid,+41 27 923 06 88,,,,,,,,,,,,,,,,,,,,,
8.0518777795102,46.3591422470174,camp_site,Tunetsch,http://www.tunetsch.com,+41 27 927 25 25,Mörel-Filet,3983,Pfäwi,1,info@tunetsch.com,Daniela Imrich und Nico van Vliet,,,,,,,,,,,,,,,,,,,,,,
8.2038793997936,46.3700359062293,camp_site,Camping Giessen,https://www.camping-giessen.ch/,+41 27 971 46 19,Binn,3996,,,info@camping-giessen.ch,Familie Guntern,+41 27 971 46 27,,,,,,,,,,,,,,,,,,,,,
6.19258302382378,46.4825728610434,camp_site,,,,,,,,,,,no,,,,,,,,,,,,,,basic,,,,,,
6.20762519525482,46.4834733909118,camp_site,,,,,,,,,,,no,,,,,,,,,,,,,,basic,,,,,,
6.18542199425772,46.4963829510076,camp_site,,,,,,,,,,,no,,,,,,,,,,,,,,basic,,,,,,
6.25253069426142,46.6261332897614,camp_site,Camping du Rocheray,http://www.camping-club-vaudois.ch/camping-caravaning-le-rocheray-vallee-de-joux/?lang=en,+41 21 845 51 74,,,,,,Ursula Bachmann,,,,,3,,,,,,,,,,,,,Campsite Lac de Joux,,,,
6.34754253517513,46.4616327767481,camp_site,Camping Aux Vernes,http://www.campingrolle.ch/,+41(0)218251535,,,,,reception@campingrolle.ch,,+41(0)21 825 12 39,,wlan,,,,,,,,,,,,,,,,,,,
6.37438749023875,46.5499234541777,camp_site,Bois-genitl,,,,,,,,,,,,,,,,,,,,,,,,,,,,,,
6.4521524216118,46.5154930892113,camp_site,Camping à la ferme,,+41 (0) 79 339 60 87,Denens,1135,Route des Cigognes,11,,,,,,,,,,,,,,,,,,,,,,,,
6.4894081268999,46.5039225923844,camp_site,Le Petit Bois,,+41 (0)21 801 12 70,Morges,1110,Promenade du Petit Bois,15,,TCS,,,,,,,CH,,,,,,,,,camp_pitch,,,,,,
6.54126754577531,46.5096936564632,camp_site,,,,,,,,,,,,,,,,,,,,,,,,,,,,,,,
6.59777950776543,46.5161366154425,camp_site,Camping de Vidy,,,,,,,,,,,,,,,,,,,,,,,,,,,,,,
6.37444814669839,46.7102499727588,camp_site,Camping au Pré Sous Ville,,,,,,,,,,,,,,,,,,,,,,,,,,,,,,
6.46678341613916,46.6904668283056,camp_site,Le Nozon,,,,,,,,,,,,,,,,,,,,,,,,,,,,,,
6.52248462138103,46.6088736233351,camp_site,,,,Penthalaz,,Chemin de la Piscine,,,,,,,,,,,,,,,,,,,,,,,,,
6.52481873002999,46.6079542632514,camp_site,,,,Penthalaz,,Chemin de la Piscine,,,,,,,,,,,,,,,,,,,,,,,,,
6.52332565600887,46.6088552821873,camp_site,,,,Penthalaz,,Chemin de la Piscine,,,,,,,,,,,,,,,,,,,,,,,,,
6.50805932073138,46.6626791482271,camp_site,,,,,,,,,,,,,,,,,,,,,,,,,,,,,,,
6.5103799476924,46.6617714272487,camp_site,,,,,,,,,,,,,,,,,,,,,,,,,,,,,,,
6.5099889533095,46.6625585591534,camp_site,,,,,,,,,,,,,,,,,,,,,,,,,,,,,,,
6.5322238106233,46.7368186872778,camp_site,Le Signal,https://www.tcs.ch/fr/voyages-camping/camping/offres/orbe.php,+41 24 441 38 57,,,,,camping.orbe@tcs.ch,TCS,+41 24 441 45 10,,wlan,,,,,,,yes,,,,,,,,,,,,
6.73749549468882,46.4895658404068,camp_site,Camping de Moratel,,+41 21 799 19 14,Bourg-en-Lavaux,1096,Route de Moratel,2,,,,,,,,,,,,,,24,,,,,,,,,375,
6.71403270551125,46.5112127318625,camp_site,Camping du Portillon,,,,,,,,,,,,,,,,,,,,,,,,,,,,,,
6.76462154725863,46.5289112582439,camp_site,Camping des Cases,http://www.campingforel.ch,+41 21 781 14 64,,,,,,,,,wlan,,,,,,,yes,yes,,,,"Mo-Su 08:30-12:00,14:00-19:00",,,,,,,
6.69463759937662,46.5607441106301,camp_site,,,,,,,,,,,,,,,,,,,,,,,,,,,,,,,
6.91733045991981,46.5265290327146,camp_site,Camping le Bivouac,http://www.le-bivouac.ch/,+41 (0)21 948 78 49,Châtel-St-Denis,1618,Route des Paccots,21,info@le-bivouac.ch,,,,,,4,,,,,,,,,,,,,,,,,
7.02548721555558,46.6729023966495,camp_site,La Forêt,http://www.camping-la-foret.ch/,+41 (0)26 915 18 82,,,,,info@restaurant-la-foret.ch,,+41 (0)26 915 03 63,,yes,,,,,,,,,,,,,,,,,,,
6.56984768672299,46.8113502249783,camp_site,Camping du Bois de Fey,,,,,,,,,,,,,,,,,,,,,,,,,,,,,,
6.5586708028554,46.8416095303904,camp_site,Camping des Cluds,,,,,,,,,,,,,,,,,,,,,,,,,,,,,,
6.64973841226078,46.7849389607935,camp_site,Camping Yverdon Plage,https://www.camping-yverdon.ch/,+41 (0) 24 425 10 89,,,,,camping.yverdon@bluewin.ch,,+41 (0) 24 425 76 31,,wlan,,3,,,,,yes,,,,,,,,,,,,
6.63554898568471,46.8028551669507,camp_site,Camping Le Pécos,,,,,,,,,,,,,,,,,,,,,,,,,,,,,,
6.66504510321927,46.8176091250157,camp_site,Camping de Belle-Rive,http://www.treyvaud.com/,+41(0)26 676 94 49,,,,,caravanes@treyvaud.com,,,,,,,,,,,,,,,,,,,,,,,
6.67303114827618,46.8208955254667,camp_site,,,,,,,,,,,,,,,,,,,,,,,,,,,,,,,
6.57549143509824,46.9062405084632,camp_site,Camping du Val-de- Travers,http://www.camping-val-de-travers.ch/,+41 32 861 42 62,,,,,,,,,,,,,,,,,,,,,,,,,,,,
6.71808824097546,46.8048945984663,camp_site,Camping VD 8 Pointe d'Yvonand,http://www.campings-ccyverdon.ch/index.php/vd8-yvonand,+41 (0)24 430 16 55,Yvonand,1462,Pointe d'Yvonand,,VD8@campings-ccyverdon.ch,,+41 (0)24 430 24 63,yes,,,,yes,,,,,,,,,,,,,,,,
6.73912232368497,46.8048872292806,camp_site,Camping de la Menthue,https://camping-yvonand.ch/,+41 24 430 18 18,Yvonand,1462,Chemin de la Plage,,,,,,,yes,,yes,,,,yes,,,,,,,,,,,,
6.72555403305005,46.8513949809131,camp_site,,,,,,,,,,,,,,,,,,,,,,yes,,,,,,,,,
6.84653024540383,46.8557215178676,camp_site,,,,,,,,,,,,,,,,,,,,,,,,,,,,,,,
6.94458997348497,46.8104436688389,camp_site,,,,,,,,,,,,,,,,,,,,,,,,,,,,,,,
6.86338118126919,46.8607077765331,camp_site,,,,,,,,,,,,,,,,,,,,,,yes,,,,,,,,,
6.90112125783618,46.8915123076384,camp_site,Camping de Chevroux,,,,,,,,,,,,,,,,+41 266671445,http://www.campingdechevroux.com/,,,,,info@campingdechevroux.com,,,,,,,,
6.93087563761166,46.9022817101862,camp_site,Village des chasseurs cueilleurs,https://www.village-lacustre.ch/,,,,,,,,,,,,,,,,,,,,,,,,,,,,,
6.95350435725575,46.9207592564813,camp_site,La Nacelle,https://www.delley-portalban.ch/camping_accueil.html,,,,,,camping@delley-portalban.ch,,,,,,,,,,,,,,,,,camp_pitch,,,,,,
6.85067311771127,46.9396203174623,camp_site,Le Petit Cortaillod,,+41 32 841 40 31,,,,,,,,,,yes,,,,,,,,,,,,,,,,,,
6.76105534331555,47.0518559923027,camp_site,Camping La Belle Verte,http://www.labelleverte.ch/,,,,Montpugin,6,,,,,,,,,,,,,,,,,,,,,,,,
6.83688533244458,47.0941109627669,camp_site,Bois-Du-Couvent,,,,,,,,,,,,,,,,,,,,,,,,,,,,,,
6.87167320318778,46.9659447879466,camp_site,Paradis-Plage,,,,,,,,,,,,,,,,,,,,,,,,,,,,,,
7.028252460868,46.9622673577114,camp_site,Camping communal de Cudrefin,http://www.camping-cudrefin.ch,+41 (0)26 677 32 77,Cudrefin,1588,Route de Neuchâtel,87,camping@cudrefin.ch,Commune Cudrefin,+41 (0)26 677 07 67,yes,,,,,,,,,,,,,,,,Camping communal de Cudrefin,,,,
7.02092794556811,47.0036965509415,camp_site,Camping La Tène,https://www.latene.ch/,,,,,,,,,,,,,,,,,,,,,,,,,,,,,
7.02073958983905,47.0052840912761,camp_site,,,,,,,,,,,,,,,,,,,,,,,,,,,,,,,
7.02764917835272,47.0065762622285,camp_site,Naturistengelände Thielle - die neue zeit,http.//www.die-neue-zeit.ch,,Gampelen,3236,Rothausstrasse,105,,"Stiftung ""die neue zeit""",,yes,no,,,,,,,,,2000,,,,,customers,,,,,
6.89377782932197,47.1207622344345,camp_site,La Cibourg,http://www.centrelacibourg.ch,+41 32 968 39 37,Renan (BE),2616,Clermont,157,info@centrelacibourg.ch,Famille V. Stengel & fils,032 968 10 43,,,,,,,,,,,,,,,,,,,,,
7.01954561248189,47.2533048818815,camp_site,Camping communal Saignelégier,,,,,,,,,,,,,,,,,,,,,,,,,,,,,,
7.12402368380344,46.4666543002233,camp_site,Le Berceau,,,,,,,,,,,,,,,,,,,,,,,,,,,,,,
7.08512185241488,46.5578330420434,camp_site,Camping Haute Gruyère,http://camping-gruyere.ch/,+41(0)26 921 22 60,Bas-Intyamon,1667,Chemin du Camping,18,camping.enney@bluewin.ch,Camping Enney AG,+41(0)26 921 22 60,,,,,,,,,,,,,,,,,,,,,
7.26539886558172,46.4867478761825,camp_site,Camping Saanen beim Kappeli,https://www.camping-saanen.ch/,+41 33 744 61 91,Saanen,3792,Campingstrasse,15,info@camping-saanen.ch,,,,,yes,,,,,,,,,,,,,,,,,,
7.3772809980523,46.5638209380552,camp_site,Fankhauser,https://www.camping-fankhauser.ch/,+41 33 722 13 56,,,,,info@camping-fankhauser.ch,,,yes,,,4,,,,,,,,,,,,,,,,,
7.37779111090769,46.5624959730955,camp_site,Vermeille,https://camping-vermeille.ch/,+41 33 722 19 40,,,,,info@camping-vermeille.ch,,,,,,4,,,,,,,,,,,,,,,,,
7.081311630855,46.5952311542661,camp_site,Les Sapins,,,,,,,,,,,,,,,,,,,,,,,,,,,,,,
7.08666435506363,46.6744343637492,camp_site,Camping-Résidence du Lac,http://www.potentille.ch/de/N485/der-camping-lage-anreise.html,+41(0)26 915 21 62,,,,,info@potentille.ch,,,,,,3,,,,,,,,,,,,,,,,,
7.19738325546609,46.7381525478721,camp_site,Camping Le Mont,,,,,,,,,,,,,,,,,,,,,,,,,,,,,,
7.27447817911369,46.6615737930342,camp_site,Camping Seeweid Schwarzsee,https://www.camping-schwarzsee.ch/,,,,,,,,,,,,,,,,,,,,,,,,,,,,,
7.33749564476942,46.5924546958118,camp_site,Camping Jaunpass,,,,,,,,,,,,,,,,,,,,,,,,,,,,,,
7.34024056446782,46.5931485609379,camp_site,Camping Jaunpass,,,,,,,,,,,,,,,,,,,,,,,,,,,,,,
7.30044512235628,46.7522553775547,camp_site,Camping Füllmattli,http://www.camping-fuellmattli.ch,,,,,,info@camping-fuellmattli.ch,,,,,,,,,,,,,,,,,,,,,,,
7.44347048692317,46.4519343959634,camp_site,Seegarten,,,,,,,,,,,,,,,,+41 33 733 16 16,http://www.campingseegarten.ch/,,,,,info@campingseegarten.ch,,,,,,,,
7.47790310548201,46.4281003050136,camp_site,Hasenweide,https://www.camping-hasenweide.ch/,,Lenk im Simmental,3775,Hasenweide,1,,"Gebr. Zurbrügg, Maya Müller",,,,,,,,,,,,,,,,,,,,,,
7.48389136125999,46.5701196759703,camp_site,Eggmatte,,,,,,,,,,,,,,,,,,,,,,,,,,,,,,
7.66478642586992,46.4845433214548,camp_site,,https://www.kisc.ch/,,,,,,,KISC,,,,no,,yes,,,,,,,,,,,,,,,,
7.66870417843701,46.4805727920533,camp_site,,https://www.kisc.ch/,,,,,,,KISC,,,,no,,yes,,,,,,,,,,,,,,,,
7.64179892054641,46.5819112183749,camp_site,,,,,,,,,,,,,,,,,,,,,,,,,,,,,,,
7.43132767456855,46.6543702211285,camp_site,Camping Arnist,http://www.campingarnist.ch,+41 33 783 16 83,,,,,,,+41 33 783 00 26,,,,,,,,,,,,,,,,,,,,,
7.47852833508313,46.6576418582223,camp_site,Dür's Bächli,,,,,,,,,,,,,,,,,,,,,,,,,,,,,,
7.52061152769629,46.7453824673086,camp_site,Bad Blumenstein,http://www.bad-blumenstein.ch,,,,,,,,,,,,,,,,,,,,,,,,,,,,,
7.70010309629266,46.6535554633602,camp_site,Panorama,http://www.camping-aeschi.ch/kontakt/index.php,,Aeschi bei Spiez,3703,Scheidgasse,26,,,,,,,,,,,,,,,,,,,,,,,,
7.70968431028958,46.6653532654763,camp_site,,,,,,,,,,,,,,,,,,,,,,,,,,,,,,,
7.71802652058138,46.6580079045322,camp_site,Camping Stuhlegg,http://www.camping-stuhlegg.ch,+41 33 654 27 23,Krattigen,3704,Stueleggstrasse,7a,info@camping-stuhlegg.ch,,+41 33 654 67 03,,,,,,CH,,,,,,,,,,,,,,772,yes
7.62826682504436,46.7278741738143,camp_site,Camping TCS Gwatt,,,Gwatt,3645,Gwattstrasse,103,,TCS,,,,,,,,,,,,,,,,,,,,,,
7.04826818760884,46.8991414845045,camp_site,Camping Les Joncs,https://www.treyvaud.ch,+41 (0)26 676 94 49,Avenches,1580,Route de Salaveaux,2,caravanes@treyvaud.ch,Caravanes Treyvaud SA,,,,,,,,,,,,,,,,camp_pitch,,,,,,
7.04943874315088,46.904544302362,camp_site,Camping de la Plage,https://www.avenches.ch/de/campingportplage/camping,+41 (0)26 675 17 50,Avenches,1580,,,camping@avenches.ch,Commune Avenches,,,,,,,,,,,,,,,,,,,,,,
7.03399227556091,46.9129667204077,camp_site,TCS Camping Salavaux Plage,https://www.tcs.ch/de/reisen-camping/camping/angebote/salavaux-plage.php,+41 26 677 14 76,Vully-les-Lacs,1585,Chemin de la Plage,10,camping.salavaux@tcs.ch,Touring Club Schweiz (TCS),+41 26 677 37 44,,,,,,,,,,,,,,,,,,,,,
7.19001141493345,46.8784825486126,camp_site,Seepark Schiffenen,http://www.camping-schiffenen.ch,,,,,,,,,,,,,,,,,,,,,,,,,,,,,
7.33303957707805,46.8930772229385,camp_site,,,,,,,,,,,,,,,,,,,,,,,,,,,,,,,
7.09626439496554,46.9758488479502,camp_site,Camping des 3 Lacs,,,,,,,,,,,,,,,,,,,,,,,,,,,,,,
7.11710814390946,46.9590328979051,camp_site,Praz Novy,,,,,,,,,,,,,,,,,,yes,,,,,,,,,,,,
7.04000732161347,47.0010526681546,camp_site,Fanel,,,,,,,,,,,,,,,,,,,,,,,,,,,,,,
7.13354625212422,46.942434791129,camp_site,Camping Löwenberg,http://www.campingloewenberg.ch,+41 79 776 74 80,,,,,,,+41 26 670 56 55,,,,,,,,,,,,,,,,,,,,,
7.06985357930716,47.0520462902148,camp_site,,,,,,,,,,,,,,,,,,,,,,,,,,,,,,,
7.07000274320247,47.0524651539638,camp_site,Camping des pêches,,,,,,,,,,,,,,,,,,,,,,,,,,,,,,
7.07187894450924,47.052248962016,camp_site,,,,,,,,,,,,,,,,,,,,,,,,,,,,,,,
7.10423076211466,47.0393586663081,camp_site,,,,,,,,,,,,,,,,,,,,,,,,,,,,,,,
7.11006716843315,47.0368389352903,camp_site,Campingplatz Strand,,,Vinelz,3234,Ländteweg,16,,,,,,,,,,,,,,,,,,,,,,,,
7.09444470470494,47.0457268464464,camp_site,Camping Mon Plaisir,http://www.camping24.ch,+41 32 338 1358,,,,,info@camping24.ch,,,,,,,,,,,,,,,,,,,,,,,
7.09501440913544,47.0460095893139,camp_site,Camping Hübscher,http://www.campinghuebscher.ch,+41 79 202 6037,,,,,info@campinghuebscher.ch,,,,,,,,,,,,,,,,,,,,,,,
7.09624754441073,47.045769742822,camp_site,Camping Gemeinde Erlach,https://www.erlach.ch/de/tourismus/hotels/welcome.php?action=showunternehmen&unternehmen_id=20812,+41 32 338 1646,,,,,camping@erlach.ch,,,,,,,,,,,,,,,,,,,,,,,
7.08316194323839,47.0599896585143,camp_site,,,,,,,,,,,,,,,,,,,,,,,,,,,,,,,
7.08780411213403,47.0606308080885,camp_site,La Plage,,,,,,,,,,,,,,,,,,,,,,,,,,,,,,
7.07314877625987,47.0864392772121,camp_site,Fraso-Ranch,http://www.camping-lignieres.ch/,+41-327514616,Lignières,2523,,,camping.fraso-ranch@bluewin.ch,,+41-327514614,,,,,,,,,,,,,,,,,,,,,
7.11911042568077,47.0850606485587,camp_site,,,,,,,,,,,,,,,,,,,,,,,,,,,,,,,
7.16954351417787,47.0535016068217,camp_site,Pfadfinderlagerplatz,,,,,,,,,,,,,,,,,,,,,,,,,,,,,,
7.1704310817958,47.0538959279508,camp_site,Pfadfinderlagerplatz,,,,,,,,,,,,,,,,,,,,,,,,,,,,,,
7.19922368744496,47.0807372156366,camp_site,,,,,,,,,,,,,,,,,,,,,,,,,,,,,,,
7.2103732147516,47.0929794773865,camp_site,Lindenhof,https://www.camping-lindenhof.ch/,,,,,,,,,,,,,,,,,yes,,,,,,,,,,,,
7.22014450270955,47.1078861257745,camp_site,Camping Sutz,https://camping-sutz.ch/,+41 32 397 13 45,Sutz,2572,Kirchrain,40,,,,,,,,,,,,yes,,,,,,,,,,,,
7.36240737940588,47.048123325202,camp_site,,,,,,,,,,,,,,,,,,,,,,,,,,,,,,,
7.40438650680289,46.7856040424262,camp_site,Campingplatz Heubach,,,Rüschegg,3153,Heubach-Teufengraben,,,,,yes,,,,,,+41 62 751 15 23,http://www.camping-heubach.ch/,,,,,heubach@sccv.ch,,,,,,+41 79 462 43 35,,
7.48143498908467,46.793998092702,camp_site,Camping Burgistein,http://www.campingburgistein.ch,,,,,,,,,yes,,,,,,,,,,,,,,,,,,,,
7.4545513098589,46.9329734923865,camp_site,Camping Eichholz,http://www.campingeichholz.ch,+41 31 961 26 02,,,,,,,,,,yes,,yes,,,,yes,,,,,,,,,,,,
7.60752860031872,46.8138335440737,camp_site,Wydeli,http://www.camping-brenzikofen.ch/,+41 31 771 11 41,Brenzikofen,3671,Wydeli,60,info@camping-brenzikofen.ch,Hans-Rudolf Eicher,+41 31 771 11 81,,,,,,,,,,,,,,,,,,,,,
7.60830618590001,46.8135145454109,camp_site,Wydeli,http://www.camping-brenzikofen.ch/,+41 31 771 11 41,Brenzikofen,3671,Wydeli,60,info@camping-brenzikofen.ch,Hans-Rudolf Eicher,+41 31 771 11 81,,,,,,,,,,,,,,,,,,,,,
7.38394740690558,46.9644910630448,camp_site,TCS Camping Bern-Eymatt,https://www.tcs.ch/,+41 319011007,,,,,camping.bern@tcs.ch,,,,wlan,,4,,,,,,no,,,,,,,,,,,
7.63267122312866,47.0539457780549,camp_site,Waldegg,https://www.burgdorf.ch/1273.html,+41(0)34 422 24 60,Burgdorf,3400,Waldegg,,camping.waldegg@bluemail.ch,,,,,,,,,,,,,,,,,,,,,,,
7.86157465269448,46.4351562693756,camp_site,Camping Fafleralp,,+41 79 155 03 04,,,,,,,,yes,,,,,,,,,,,,,,,,,,,1765,
7.9008417559047,46.5462821430366,camp_site,Rütti,,+41 (0)33 855 28 85,Stechelberg,,,3824,campingruetti@stechelberg.ch,,,yes,,,,,,,,,,80,,,,,,,,,,
7.90847744848092,46.5683830319052,camp_site,Breithorn,,,,,,,,,,,,,,,,,,limited,,,,,,,,,,,,
7.91003446748675,46.5878658400544,camp_site,Jungfrau,http://www.camping-jungfrau.ch,+41 33 856 20 10,,,,,info@camping-jungfrau.ch,Camping Jungfrau AG,,,wlan,,,,,,,yes,no,,,,,,,,,,,
7.8645280876449,46.6615455393158,camp_site,Oberei,https://www.campingwilderswil.ch/,+41 33 822 13 35,,,,,info@campingwilderswil.ch,,+41 33 822 13 35,,,,,,,,,,,,,,,,,,,,,
7.78489505505703,46.6901436861316,camp_site,Camping Wang,,,,,,,,,,,,,2,,,,,,,,,,,,,,,,,
7.81854267843924,46.6803052717026,camp_site,Camping Alpenblick,https://camping-alpenblick.ch/,+41 33 822 77 57,,,,,,Susan Knecht und Georges Zehntner ,,,,,,,,,,,,,yes,,,,,,,,,
7.81541954977323,46.6811444756121,camp_site,Manor Farm,http://www.manorfarm.ch/,+41 33 822 22 64,,,,,,,,,,,5,,,,,,,,yes,,,,,,,,,
7.82964068637521,46.6844065768653,camp_site,Hobby,,,,,,,,,,,,,,,,,,,,,yes,,,,,,,,,
7.83007332910194,46.6860069856411,camp_site,Lazy Rancho,,,,,,,,,,,,,,,,,,,,,yes,,,,,,,,,
7.83451943281538,46.6874956611246,camp_site,Jungfrau,,,,,,,,,,,,,,,,,,,,,yes,,,,,,,,,
7.8662502741442,46.6729014175002,camp_site,Jungfraublick,,,,,,,,,,,,,,,,,,,,,,,,,,,,,,
7.8941764163392,46.6911684077507,camp_site,Seeblick,,,,,,,,,,,,,,,,,,,,,,,,,,,,,,
7.8690052205161,46.6927713027224,camp_site,TCS Camping Sackgut,,,,,,,,,,,,,,,,,,,,,,,,,,,,,,
7.90628221473407,46.7074414308103,camp_site,Talacker,https://www.talacker.ch/,+41 33 822 11 28,Ringgenberg,3852,Talacher,482B,camping@talacker.ch,,+41 33 822 98 38,,wlan,,,,CH,,,,no,,,,,,,,,,,
7.93154969674208,46.6372999101412,camp_site,Dany's Camping,,,,,,,,,,,,,,,,,,,,,,,,,,,,,,
8.00715071935899,46.6197209729906,camp_site,Camping Holdrio,https://www.camping-grindelwald.ch/,,,,,,,,,,,,,,,,,,,,,,,,,,,,,
8.01644942857107,46.6226647760721,camp_site,Eigernordwand,http://eigernordwand.ch/,,Grindelwald,3818,Bodenstrasse,4,,,,,,,,,,,,,,,,,,,,,,,,
8.02810015988919,46.6191477906478,camp_site,Camping Sand Grindelwald,,,Grindelwald,3818,,,,,,,,,,,,,,,,,,,,,,,,,,
8.04427700194617,46.6207796708269,camp_site,Gletscherdorf,,,,,,,,,,,,,,,,,,,,,,,,,,,,,,
7.92473597791148,46.6914492583225,camp_site,,,,,,,,,,,,,,,,,,,,,,,,,,,,,,,
7.91385973794703,46.7076899140605,camp_site,"Camping au lac, Ringgenberg",http://www.dive-links.com/tauchplatz.php?id=2277,+41 33 822 26 16,,,,,,,,,,,,,,,,,,,,,,,,,,,,
8.04831491348652,46.7480821790445,camp_site,Aaregg,https://www.aaregg.ch/,,,,,,,,,,,,,,,,,,,,,,,,,,,,,
8.04859538836208,46.7506060377246,camp_site,Seegärtli,,,,,,,,,,,,,,,,,,,,,,,,,,,,,,
8.13982352749586,46.41018084432,camp_site,Moosji,,,,,,,,,,,,,,,,,,,,,,,,,,,,,,
8.22689242345339,46.4541995587182,camp_site,Camping Brigga (Sektor B),http://www.campingbrigga.ch,,,,,,,,,,,,,,,,,,,,,,,,,,,,,
8.22599425698898,46.4551860849811,camp_site,Camping Brigga (Sektor A),http://www.campingbrigga.ch,027 973 16 31,,,,,info@campingbrigga.ch,,,,,,,,,,,,,,,,,,,,,,,
8.22989851618719,46.4567253937364,camp_site,Camping Brigga (Sektor C),http://www.campingbrigga.ch,,,,,,,,,,,,,,,,,,,,,,,,,,,,,
8.24489615932428,46.4646956480598,camp_site,Camping Augenstern,http://www.campingaugenstern.ch/,+41 (0)27 973 13 95,Reckingen,3998,,,info@campingaugenstern.ch,,+41(0)27 973 26 77,,,,,,,,,,,150,,,,,,,,,,
8.30949910427788,46.5036765958877,camp_site,Campingplatz Nufenen,http://www.camping-nufenen.ch,+41 27 9731437,Obergoms,3988,Wichel,3,,Claude & Petra Pause,,,,,,,,,,,,,,,Jun-Sep 24/7,,,,,,,
8.36080469467725,46.5368611527445,camp_site,Holiday-Camp Sand,http://www.holidaycamp.ch,,Obergoms,3999,,,,,,,,,,,,,,,,,,,,,,,,,,
8.17036694325196,46.7248716015596,camp_site,,,,,,,,,,,,,,,,,,,,,,,,,,,,,,,
8.17070615414116,46.7329966349746,camp_site,Alpencamping,http://www.alpencamping.ch,,,,,,,,,,,,,,,,,,,,,,,,,,,,,
8.15385155640618,46.746700703758,camp_site,Tipidorf Hasli-Aktiv,http://www.hasli-aktiv.ch/de/tipidorf,,Meiringen,3860,Brunnenfluh,737,,,,,,,,,CH,,,,,,,,,,,,,,772,barn
8.21502752167766,46.7099320205441,camp_site,Camping Aareschlucht,,,,,,,,,,,wlan,,,,,,,,,,,,,,,,,,,
8.22624185226435,46.7018885489123,camp_site,Camping Grund,,,,,,,,,,,,,,,,,,,,,,,,,,,,,,
8.22578848098465,46.7068403647843,camp_site,Grimselblick,http://www.camping-grimselblick.ch/,,,,,,,,,,wlan,,,,,,,,,,,,,,,,,,,
8.19586085060835,46.7371706019153,camp_site,Hofstatt-Derfli,https://www.derfli.ch/,,,,,,,,,,wlan,yes,,,,,,,yes,,,,,,,,,,,
8.36227496407936,46.7381097712066,camp_site,,,,,,,,,,,,,,,,,,,,,,yes,,,,,,,,,
7.89052617196136,46.8137714479829,camp_site,Camping Bumbach,,,,,,,,,,,,,,,,,,,,,,,,,,,,,,
7.90809205694557,46.872933266438,camp_site,Camping Sternen,,,,,,,,,,,,,,,,,,,,,,,,,,,,,,
8.02386510472735,46.826564661953,camp_site,,,,,,,,,,,,,,,,,,,,,,,,,,,,,,,
8.01317185219981,46.8766683851595,camp_site,,https://touristik-ag.ch/,,,,,,info@touristik-ag.ch,,,,,,,,,,,,,,,,,,,,,,,
8.15210469970846,46.7851945979424,camp_site,Obsee,https://obsee.ch/,+41 41 678 14 63,Lungern,6078,Campingstrasse,1,,,,,,,,,,,,,,,,,,,,,,,,
8.1879823739889,46.8537517857209,camp_site,Camping International Giswil,https://www.camping-international.ch/web_final/camping_giswil_lage_d.html,,,,,,,FWS,,,,,,,,,,,,,,,,,,,,,485,
8.2426485381,46.8829874318257,camp_site,Camping Seefeld,http://www.seefeldpark.ch/camping,+41 (0)41 666 57 88,Sarnen,6060,Seestrasse,20,welcome@seefeldpark.ch,,,,,,,,,,,,,,,,,,,,,,,
8.42277229641789,46.8098936395579,camp_site,Eienwäldli,,,,,,,,,,,,,,,,,,,,,,,,,,,,,,
8.26637318179055,46.8991680784489,camp_site,,,,,,,,,,,,,,,,,,,,,,,,,,,,,,,
8.26666184717474,46.899920346444,camp_site,,,,,,,,,,,,,,,,,,,,,,,,,,,,,,,
8.31064417961882,47.0109235604146,camp_site,Camping Steinibachried,,,,,,,,TCS,,,,yes,4,yes,,,,,,,,,,,,,,,,
8.41871768659462,46.9786305212023,camp_site,Camping Buochs-Vierwaldstättersee,http://www.tcs-camping.ch/buochs,+41 41 620 34 74,Buochs,6374,Seefeldstrasse,4,camping.buochs@tcs.ch,Touring Club Schweiz (TCS),+41 41 620 64 84,,,,,,,,,,,,,,,,,,,,,
8.33894075776834,47.0501038710058,camp_site,Camping International Lido Luzern,https://www.camping-international.ch/web_final/camping_luzern_news_d.html,+41 41 3702146,Luzern,6006,Lidostrasse,19,,,,yes,,,,,,,,,,,,,,,,,,,,
8.40281024642955,47.0613815094892,camp_site,Camping Merlischachen,http://www.seecamping.ch,,,,,,,,,,,,,,,,,,,,,,,,,,,,,
7.03557694022108,47.212540898307,camp_site,Camping Les Cerneux,http://www.lescerneux.ch/,,La Chaux-des-Breuleux,2345,,,info@lescerneux.ch,,,,,,,,,,,,,,,,,,,,,,,
7.18358874059813,47.2279946498264,camp_site,Camping de Belfond,http://www.campingdebelfond.ch,,Tavannes,2710,Belfond,2,,Geiser Pierre-André et Gladys,,,,,,,,,,,,,,,,,,,,,,
7.33074932295743,47.1899031589186,camp_site,Camping Les Oeuchettes,,+41 (0)32 342 63 07,Romont BE,2538,Chemin des Oeuchettes,22,,,,,,,,,,,,,,,,,,,,,,,,
7.34621614233769,47.1624091367695,camp_site,Seeland Camp,http://seeland-camp.ch,+41 32 377 26 86,Meinisberg,2554,Berg,5,,http://seeland-camp.ch,,,,,,,,,,,,,,,,,,,,,,
7.14136876389413,47.3339081899312,camp_site,Tariche,,,,,,,,,,,,,,,,,http://tariche.ch,,,,,,,,,,,,,
7.33671251638261,47.3569285387669,camp_site,La Grande Écluse,,,,,,,,,,,,,,,,,,,,,,,,,,,,,,
7.40748912418687,47.1646855631122,camp_site,Zeltplatz Staad,,,,,,,,,,,,,,,,,,,,,,,,,,,,,,
7.44744704506617,47.1897935209131,camp_site,Campingplatz Altreu,,,,,,,,,,,,,,,,,,,,,,,,,,,,,,
7.52183040380636,47.1975561295322,camp_site,TCS Camping zum Muttenhof,https://www.tcs.ch/de/camping-reisen/camping/campingplaetze/standorte/solothurn.php,,Solothurn,4500,Glutzenhofstrasse,5,,TCS,,,,,,,,,,,,,,,,,,,,,,
7.41802451407594,47.3240224773726,camp_site,,,,,,,,,,,,,,,,,,,,,,,,,,,,,,,
7.47006941479274,47.3213621774456,camp_site,,,,,,,,,,,,,,,,,,,,,,,,,,,,,,,
7.4701438900949,47.3221141106344,camp_site,,,,,,,,,,,,,,,,,,,,,,,,,,,,,,,
7.47263737915419,47.3239812425763,camp_site,,,,,,,,,,,,,,,,,,,,,,,,,,,,,,,
7.60265018706749,47.4999246105437,camp_site,Camping Waldhort Reinach,https://www.camping-waldhort.ch/,,,,Heideweg,16,,,,,,,,,,,,,,,,,,,,,,,,
7.71582453000737,47.539219742701,camp_site,Camping und Schwimmbad am Rhein,https://www.camping-kaiseraugst.ch/,,,,,,,,,,,,,,,,,,,,yes,,Oct-Mar off,,,,,,,
7.58901142750407,47.5938489189852,camp_site,Camping Au Petit Port,campinghuningue.fr,+33 389 700 171,Huningue,68330,Allée des Marronniers,8,contact@campinghuningue.fr,,,yes,,yes,2,yes,FR,,,,,,,,,,,,,,,
7.66326615657891,47.624689267083,camp_site,Drei-Länder-Camp,https://www.dreilaendercamp.de/,+49 7621 82588,,,,,info@dreilaendercamp.de,,+49 7621 165034,,wlan,yes,,yes,,,,yes,,,yes,,,,,,,,,
7.88396302802455,47.1724276252951,camp_site,Camping Zegro,,,Grossdietwil,6146,Sandgrubenstrasse,1,,Philipp und Sandra Zettel-Vogel,,,,,,,CH,+41 62 9271424,http://www.loewen-grossdietwil.ch/,,,,,info@loewen-grossdietwil.ch,,,,,+41 62 9272639,,,
7.89490864646838,47.3155093080234,camp_site,Wiggerspitz,http://www.camping-aarburg.ch/,+41 62 791 58 10,,,,,info@camping-aarburg.ch,,,,,,3,,,,,,,,,,May-Sep,,,,,,,
7.74905603257952,47.4509807378729,camp_site,Campingplatz Talhaus,http://talhaus.ch,+41 76 438 20 43,,,,,,Talhaus AG,,yes,,,,,,,,,,,,,,,,,,,,
8.1259414926897,47.1450337273034,camp_site,St. Margrethen,,,Nottwil,6207,,,,,,,,,,,,,,,,,,,,,,,,,,
8.08652621321721,47.1746822144336,camp_site,,,,,,,,,,,,,,,,,,,,,,,,,,,,,,,
8.18806520305877,47.1243477704267,camp_site,TCS Camping Sempach,,+41 41 4601466,Sempach,6204,Seelandstrasse,6,,,,yes,wlan,,4,,,,,yes,,,,,"Jan off; Feb off; Mar 1-27 off; Oct 7-31 off; Nov off; Dec off",,,,,,,
8.22393457709125,47.2453595239803,camp_site,Seeblick,http://www.camping-seeblick.ch/,,,,,,,,,,,yes,,yes,,,,,,,,,,,,,,,,
8.39492106142996,47.2807685385105,camp_site,Reussbrücke,http://www.camping-zurich.ch/,,,,,,,,,,,,,,,,,,,,,,,,,,,,,
8.21786052129052,47.3031970183117,camp_site,Campingplatz Tennwil,http://www.tennwil.ch/campingplatz/,,,,,,,,,,,,,,,,,,,,,,,,,,,,,
8.10548455797673,47.4207013239895,camp_site,"Naturistengelände Chläb ""Födlesonni""",http://www.heliosport.ch/,+41 62 897 39 98,,,,,info@heliosport.ch,,,,,,,,,,,,,,,,,,,Chläbmatte,,,,
8.33920932471309,47.3554868188628,camp_site,,,,,,,,,,,,,,,,,,,,,,,,,,,,,,,
8.31064487771253,47.3768026934389,camp_site,Camping Sulz,https://www.camping-sulz.ch/,,,,,,,,,,,,,,,,,,,,,,,,,,,,,
7.74161006171735,47.6280355430036,camp_site,Sport- & Freizeitverein Hüsingen e.V.,,,,,,,,,,,,,,,,,,,,,,,,,,,,,,
7.83829780462937,47.5762882587009,camp_site,Camping Bachtalen,http://www.camping-moehlin.ch/,061 8515095,Möhlin,4313,,,info@camping-moehlin.ch,,,,,yes,,yes,CH,,,,,,,,,,,,,,,
7.88897412247347,47.5897666034087,camp_site,Zeltplatz Schwörstadt,http://www.zeltplatz-schwoerstadt.de/,+49 07762 8514,Schwörstadt,,Hauptstraße,1A,hermann.schoenau@t-online.de,,,,,,,,,,,,,,,,,,,,,,,
7.92828847601558,47.5460106362277,camp_site,Campingplatz Mumpf,,,,,,,,,,,,,,no,,,,,,,,,,,,,,,,
8.01925330278681,47.5006625129348,camp_site,Camping Frick,http://www.campingfrick.ch/,,,,,,,,,,,yes,,yes,,,,,,,,,,,,,,,,
8.0125194808055,47.5535968842338,camp_site,Naturcamping & Kanuverleih,,,,,,,,,,,,no,,yes,,,,,,,,,,,,,,,,
7.94225226394264,47.6372447115909,camp_site,Bauernhofcamping Rüttehof,http://www.camping-rickenbach.de,,,,,,,,,,,,,,,,,,,,,,,,,,,,,
8.0028724030728,47.657850145704,camp_site,Campingplatz Lochmatt,https://www.herrischried.de/sriscms/freizeit/campingplaetze.html,,,,,,,,,,,,,,,,,,,,,,,,,,,,,
8.13848112863191,47.4813780173137,camp_site,Camping Bözberghöhe,,,Unterbözberg,5224,Neustalden,96,,,,,,,,,,,,,,,,,,,,,,,,
8.13755749066046,47.5635709891426,camp_site,Camping Waldesruh,http://www.campingwaldesruh.ch,+41 (0)62 875 22 63,Mettauertal,5276,Hintere Egg,115,waldesruh@swisscamps.ch,"Camping Waldesruh, Sutter & Co.",+41 (0)62 875 02 66,yes,,,,,,,,,,,,,,,,,,,,
8.22472568879864,47.6113854932179,camp_site,,,,,,,,,,,,,,,,,,,,,,,,,,,,,,,
8.30824043608137,47.582450810978,camp_site,,,,,,,,,,,,,,,,,,,,,,,,,,,,,,,
8.33598516934785,47.5728061140482,camp_site,Jugendzeltplatz Küssaberg,,,,,,,,Gemeinde Küssaberg,,,,,,,,,,,,,,,,,,,,,,
8.33746928178194,47.5723342607971,camp_site,Jugendzeltplatz Küssaberg,,,,,,,,Gemeinde Küssaberg,,,,,,,,,,,,,,,,,,,,,,
8.29965332902603,47.6042284717361,camp_site,Campingplatz Hochrhein,http://www.camping-hochrhein.de,+49 7741 4244,Küssaberg,79790,Oberdorf,56,,C & F am Rhein AG,,,,,,,DE,,,yes,,,,,,,,,,,,
8.38090837002408,47.5675494354716,camp_site,Campingplatz Lienheim,https://www.hohentengen.de/freizeit-und-tourismus/camping.html,"+49 7746 994; +49 1518 182688",Hohentengen am Hochrhein,79801,Rümikoner Straße,18,,,,,,,,,DE,,,,,,,,Apr-Oct,,,,,,,
8.43722134840091,47.5682068435481,camp_site,Hohentengen,https://www.hohentengen.de/freizeit-und-tourismus/camping.html,,,,,,,,,,,,,,,,,,,,,,,,,,,,,
8.248343113396,47.6477179523087,camp_site,Campingplatz Schlüchttal,http://www.campingplatz-schluechttal.de/,+49 7741 2034,,,,,info@campingplatz-schluechttal.de,,+49 7741 808659,,,,,,,,,,,,,,,,,,,,,
8.31919215901265,47.7139877697497,camp_site,,,,,,Badstraße,11a,,,,,,,,,,,,,,,,,,,,,,,,
8.34604222674085,47.7188462280258,camp_site,Stockenmühle,,+49 7743 91126,,,,,,,,,,,,,,,,,,,,,,,,,,,,
8.29193855858614,47.7521745171344,camp_site,,,,,,,,,,,,,,,,,,,,,,,,,,,,,,,
8.90135141425316,45.993566202566,camp_site,Molinazzo,,+41-(0)91-605-1757,Agno,6982,Via Acquacalda,15,,,,,,,,,,,,,,,,,,,,,,,,
8.904266048553,45.9945916945442,camp_site,La Palma,,+41-(0)91-605-2561,Agno,6982,Via Molinazzo,21,,,,,,,,,,,,,,,,,,,,,,,,
8.90680091987744,45.9958773442912,camp_site,Eurocampo,http://www.eurocampo.ch,+41-(0)91-605-2114,Agno,6982,Via Molinazzo,9,,,,,,,,,,,,,,,,,,,,,,,,
8.90935988562024,45.9949642843558,camp_site,TCS Camping Lugano,https://www.tcs.ch/it/viaggi-camping/camping/offerte/lugano.php,,Muzzano,6933,Via alla Foce,14,,TCS,,,,,,,,,,,,,,,,,,,,,,
8.9406541196512,46.0323059459895,camp_site,Camping Moretto,https://www.camping-moretto.ch/,+41 91 966 76 62,Cureglia,6944,Moretto,3,camping.moretto@skybusiness.ch,Sky Business Spycher,,,,,,,,,,,,,,,,,,,,,,
8.97967568674978,45.9233022489899,camp_site,Camping Paradiso Lago,https://camping-paradiso.ch/,+41 91 6482863,Melano,6818,Via Pedreta,26,info@camping-paradiso.ch,Camping Paradiso Lago,,yes,,,,,CH,,,,,366,,,,,,,,,,
8.97675986987094,45.9281142023044,camp_site,Monte Generoso,https://www.montegeneroso.ch/de/35/camping.aspx,+41 91 649 83 33,Melano,6818,Via Tannini,12,camping@montegeneroso.ch,,,yes,,,,,,,,,,,,,,,,,,,,
9.04399570924897,45.9776138142917,camp_site,Camping Pian delle Noci,,,,,,,,,,,,,,,,,,,,,yes,,,,,,,,,
8.72923638304622,46.1772876465373,camp_site,Camping Melezza (Zandone),http://www.campeggiozandone.ch/,+41917916563,Losone,6616,Via Arbigo,,,,,,,,,,,,,,,,,,,,,,,,,
8.7432009137628,46.2005829688061,camp_site,Piccolo Paradiso,,,,,,,,,,,,,,,,,,,,,,,,,,,,,,
8.74181896915995,46.2210544916929,camp_site,,,,,,,,,,,,,,,,,,,,,,,,,,,,,,,
8.83840555802882,46.1423781747493,camp_site,Bellavista,http://www.campingbellavista.ch,+41 (0)91 795 14 77,,,,,info@campingbellavista.ch,,,,yes,,,,,,,,,,,,,,,,,,,
8.92059870557141,46.085175493571,camp_site,Camping Palazzina,,+41 (0)91 946 14 67,Mezzovico-Vira,6805,Via la Palazzina,2,campalazzina@bluewin.ch,Famiglia Scoglio,+41 (0)91 946 14 67,,no,,,,,,,yes,,,,,,,,,,,,
8.9300541957539,46.0735399252599,camp_site,Campeggio Taverne,https://campeggiotaverne.ch/,+41 (0)91 945 11 98,,,,,,Familie Ulrich Bösiger,,,no,,,,,,,yes,,,,,,,,,,,,
8.92110613005405,46.0863613883526,camp_site,Camping Palazzina,,,Mezzovico-Vira,6805,Via La Palazzina,,,Famiglia Scoglio,,,,,,,,,,,,,,,,,,,,,,
8.80150532207501,46.1550465642743,camp_site,Delta Camping,http://campingdelta.ch,,Locarno,6600,Via Gioacchino Respini,7,,,,,,yes,,yes,,,,,,,,,,,,,,,,
8.85404481236428,46.1673250802816,camp_site,Camping Campofelice,https://www.campofelice.ch/,,Tenero,6598,Via alle Brere,,,,,,yes,,5,,,,,,no,,,,,,,,,,,
8.85268612096693,46.1692623539152,camp_site,CLM - Camping Lago Maggiore,http://www.clm.ch/,+41 (0) 91 745 18 48,Tenero,6598,Via Lido,2,,Famiglia Grassi,+41 (0) 91 745 43 18,,,,,,,,,,,,,,,,,,,,,
8.84681097460481,46.1718839227022,camp_site,Rivabella,http://www.camping-rivabella.ch/,+41 (0)79 207 02 80,Tenero,6598,Via Naviglio,11,info@camping-rivabella.ch,Famiglia Tognetti,+41 (0)91 745 66 38,,,,,,,,,,,,,,,,,,,,,
8.84649226215874,46.1729222509609,camp_site,Camping Miralago,http://www.camping-miralago.ch/,+41 (0)91 745 12 55,Tenero,6598,Via Roncaccio,,info@camping-miralago.ch,Caravan Camping Miralago S.A.,,,wlan,,,,,,,,no,,,,,,,,,,,
8.84560988404886,46.1749813744405,camp_site,Tamaro,http://www.campingtamaro.ch/,+41 (0)91 745 21 61,Tenero,6598,Via Mappo,32,,Famiglia Zanolini,+41 (0)91 745 66 36,,,,,,,,,yes,,,,,,,,,,,,
8.84348818469675,46.1758882235388,camp_site,Lido Mappo,http://www.lidomappo.ch/,+41 (0)91 745 14 37,Tenero,6598,Via Mappo,,camping@lidomappo.ch,,+41 (0)91 745 48 08,,,,,,,,,,,,,,,,,,,,,
8.91447543299308,46.1687209935958,camp_site,Park Camping Riarena,https://www.camping-riarena.ch/,+41 (0)91 859 16 88,Cugnasco,6516,,,camping.riarena@bluewin.ch,Beat Koller,+41 (0)91 859 28 85,,,,,,,,,,,,,,,,,,,,,
8.93266053953242,46.1703304580842,camp_site,Isola,http://www.camping-isola.ch/,,Gudo,6515,Al Gaggioletto,3,,,,,,,,,,,,,,,,,,,,,,,,
9.03829226451313,46.2117183661335,camp_site,Camping Bellinzona,http://www.tcs-camping.ch,,,,,,camping.bellinzona@tcs.ch,TCS,,,,,,,,,,,,,,,,,,,,,,
8.81239685067183,46.2710874165641,camp_site,,,,,,,,,,,,,,,,,,,,,,,,,,,,,,,
9.01890865436084,46.2656887434136,camp_site,Al Censo,http://www.alcenso.ch,+41-91-863-1753,Claro,6702,Al Campeggio,2,,,+41-91-863-4022,yes,wlan,yes,,yes,,,,,no,,,,,,customers,,,,,
9.20017732938049,46.3111511927126,camp_site,,,,,,,,,,,,,,,,,,,,,,,,,,,,,,,
9.71049121607726,46.4056279392035,camp_site,Plan Curtinac,https://www.camping-maloja.ch/,,Maloja,7516,,,info@camping-maloja.ch,Pittin & Co,,,,,,,,,,,,,,,,,,,,,,
8.52186465367883,46.6515746424835,camp_site,Mattli,,,,,,,,,,,no,,,,,,,,,,,,,,,,,,,
8.59158032132554,46.6316217317945,camp_site,Gotthard Camping Andermatt,,,,,,,,,,,,no,,yes,,,,,,,,,,,,,,,,
8.75501916877338,46.6731812733193,camp_site,Naturcampingplatz Rueras,,,,,,,,,,,,,,,,,,,,,,,,,,,,,,
8.75482825,46.6738128,camp_site,Campadi Rein,https://www.campadi-rein.ch/,+41 79 126 80 61,,,,,info@campadi-rein.ch,,,,,,,,,,,,,,,,,,,,,,,yes
8.85373204950699,46.6974428771452,camp_site,Fontanivas,https://www.tcs.ch/de/camping-reisen/camping/campingplaetze/standorte/disentis.php#wEmpty,+41 81 947 44 22,,7180,Via Fontanivas,9,camping.disentis@tcs.ch,,,,,,,,,,,,,,,,,,,,,,,
8.99512310141653,46.7403765437949,camp_site,Campingplatz Trun,,,,,,,,,,,,,,,,,,,,,,,,,,,,,,
8.62277626582151,46.915198927076,camp_site,Camping Flüelen,https://www.windsurfing-urnersee.ch/,+41 41 8709222,Flüelen,6454,Unterer Winkel,11,,Florian Jauch,,,,,,,,,,,,50,,,Apr-Oct 08:00-22:00,,,Windsurfing Urnersee,,,,
8.48633823838984,47.0065250092129,camp_site,Campingplatz Vitznau,http://www.camping-vitznau.ch/,+41 41 3971280,Vitznau,6354,Altdorfstrasse,,info@camping-vitznau.ch,Alex & Manuela Zanetti,,yes,,,,,,,,,,,,,,,,,,,,
8.59339047960027,46.9966573708257,camp_site,Hopfreben,http://www.camping-brunnen.ch/,+41 41 820 18 73,Brunnen,6440,Hopfrebenstrasse,,camping-brunnen@bluewin.ch,René und Anita Mettler,,yes,,,,,,,,,,,,,,,,,,,,
8.59192845185859,47.000114956495,camp_site,Urmiberg,https://www.campingurmiberg.ch/,,,,,,,,,,,,,,,,,,,,,,,,,,,,,
8.56091656060442,47.03706748991,camp_site,Camping Buosingen,,,,,,,,,,,,,,,,,,,,,,,,,,,,,,
8.55962621731149,47.040695639882,camp_site,Camping Bernerhöhe,,,,,,,,,,,,,,,,,,,,,,,,,,,,,,
8.5593232052166,47.0426412668714,camp_site,Camping Bernerhöhe,,,,,,,,,,,,,,,,,,,,,,,,,,,,,,
8.59158032876538,47.0466534354689,camp_site,Camping Buchenhof,,,,,,,,"Camping Buchenhof, Steinen",,,,yes,4,yes,,,,,,,,,,,,,,,,
8.6192070675853,46.9498535105961,camp_site,Camping Bucheli,https://www.camping-bucheli.ch/,+41 (0)79 387 07 51,Sisikon,6452,Campingstrasse,2,info@camping-bucheli.ch,Claire Zgraggen,,,,,,,,,,,,,,,,,,,,,,
8.63388081796752,46.9900464394064,camp_site,Rüti,,,,,,,,,,,,,,,,,,,,,yes,,,,,,,,,
8.6269263983562,47.0795099457739,camp_site,,,,,,,,,,,,,,,,,,,,,,,,,,,,,,,
8.63556656700831,47.0804082960548,camp_site,,,,,,,,,,,,,,,,,,,,,,,,,,,,,,,
8.62722260959684,47.1049500838344,camp_site,Neselen,,,,,,,,,,,,,,,,,,,,,,,,,,,,,,
8.64092266347775,47.1023084334881,camp_site,,,,,,,,,,,,,,,,,,,,,,,,,,,,,,,
8.81118242668455,47.096590274949,camp_site,Garni,http://www.hotelposteuthal.ch/,,,,,,,,,,,,,,,,,,,,,,,,,,,,,
8.94544527399854,47.0242787194007,camp_site,Camping Vorauen,http://www.zkgl.ch/,+41 55 640 48 59,Klöntal,8750,,,vorauen@zkgl.ch,Zeltklub Genossenschaft Glarnerland,,,,,,,,,,,,,,,,,,,,,,
9.00234922469056,47.0301295939482,camp_site,Camping Güntlenau,http://www.zkgl.ch/,+41 55 640 44 08,Klöntal,8750,,,guentlenau@zkgl.ch,Zeltklub Genossenschaft Glarnerland,,,,,,,,,,,,,,,,,,,,,,
9.31361583112322,46.5487345611412,camp_site,Camping Splügen,https://campingsplugen.ch/,+41 81 664 14 76,,,,,camping@spluegen.ch,R. und D. Ardüser-Hardegger,,,wlan,,4,,,,,,no,,,,24/7,,,Auf dem Sand,,,,
9.42616124220137,46.6069396996545,camp_site,Sut Baselgia,,,,,,,,,,,,,,,,,,,,,,,,,,,,,,
9.44815334686458,46.6502007574179,camp_site,Rania,,,,,,,,,,,,,,,,,,,,,,,,,,,,,,
9.44486536969067,46.699667001461,camp_site,Viamala,http://www.camping-thusis.ch,+41 (0)81 651 24 72,Thusis,7430,Pantunweg,,info@camping-thusis.ch,Campingplatz Viamala AG,,yes,,,,,,,,,,,,,,,,,,,,
9.79215284775871,46.455710605167,camp_site,Camping Silvaplana,,,,,,,,,,,,,,,,,,,,,,,,,,,,,,
9.79294917694873,46.4562846995266,camp_site,,,,Silvaplana,7513,Via da Bos-cha,14,,,,,,,,,CH,,,,,,,,,,,,,,,yes
9.794192172272,46.4559981090309,camp_site,Camping Silvaplana,,,,,,,,,,,,,,,,,,,,,,,,,,,,,,
9.82644059826504,46.477573912085,camp_site,TCS Camping St. Moritz,https://www.tcs.ch/de/reisen-camping/camping/angebote/st-moritz.php,,St. Moritz,7500,Via San Gian,,,Touring Club Schweiz,,,,,,,,,,,,,,,,,,,,,,
9.5910362167006,46.5969632545963,camp_site,Campingplatz Savognin,,,,,,,,,,,,,,,,,,,,,,,,,,,,,,
9.55929864389883,46.6979721136232,camp_site,St. Cassian,,,,,,,,,,yes,wlan,,,,,+41 813842472,https://camping-lenzerheide.ch/,,,,,,,,yes,,,,,
9.75227039842267,46.6187487596886,camp_site,Albula,,,,,,,,,,,,,,,,,,,,,,,,,,,,,,
9.6744390939565,46.671633943299,camp_site,Camping Islas,,,,,,,,,,,,,,,,+41 814041647,https://www.campingislas.ch,,,100,,info@campingislas.ch,,,,,,,,
9.14420500530373,46.760475515753,camp_site,Camping Surcuolm,http://www.camping-surcuolm.ch/cms/index.php,,Surcuolm-Obersaxen,7138,,,,,,,,,,,,,,,,,,,,,,,,,,
9.29736769767246,46.7864309107941,camp_site,Camping Carrera,,,Valendas,7122,Carrera,80,,Werner Stucki,,,,,,,,,,,,,,,,,,,,,,
9.28079192991952,46.8242130069445,camp_site,Camping Flims,,,,,,,,,,,,,,,,,,,,,,,,,,,,,,
9.34659589803482,46.8274511500922,camp_site,,,,,,,,,,,,,,,,,,,,,,,,,,,,,,,
9.53996828160621,46.7773733122233,camp_site,,,,,,,,,,,,,,,,,,,,,,,,,,,,,,,
9.50643166370149,46.861622669272,camp_site,Camp Au,http://www.camping-chur.ch/,+41 81 284 22 83,Chur,7000,Felsenaustrasse,61,info@camping-chur.ch,Andreas und Brigitte Christen-Cadruvi,,yes,wlan,,,,CH,,,,1h/day free,,,,,,,,,,,
9.59556404040683,46.9712272999612,camp_site,TCS Camping Landquart,https://www.tcs.ch/de/camping-reisen/camping/campingplaetze/standorte/landquart.php,+41-81-322 39 55,Landquart,7302,Ganda,21,camping.landquart@tcs.ch,TCS,,yes,,,,,CH,,,,,,,,,,,,,,,
8.44666722880102,47.1213473937578,camp_site,Campingplatz Gerbe,http://www.swiss-bauernhof.ch,,,,,,,,,,wlan,,,,,,,,no,,,,Mar-Oct,,,,,,,
8.59338706006269,47.1275737589797,camp_site,TCS Camping Unterägeri,http://www.campingunteraegeri.ch/,,,,,,,,,,,,,,,,,,,,,,,,,,,,,
8.56033436548377,47.2635640347394,camp_site,Sihlwald,,,,,,,,,,,,,,,,,,,,,,,,,,,,,,
8.54808157828625,47.2798810810483,camp_site,Geissau,,,,,,,,,,,,,,,,,,,,,,,,,,,,,,
8.75233135850911,47.2419916578013,camp_site,Pfadiheim Torlen,,,Stäfa,8712,Hotwielstrasse,20,,Pfadi Olymp Stäfa - Hombrechtikon,,,,,,,CH,,,,no,,,,,,,,,,,yes
8.54112389826128,47.3361015511949,camp_site,Fischer's Fritz Camping,http://www.fischers-fritz.ch/de/camping,+41 44 482 16 12,,,,,camping@fischers-fritz.ch,Simon Wieser,,,,,,,,,,,,,,,,,,,,,,
8.67005865786846,47.3458501783077,camp_site,Rausenbach,http://www.zeltklub.ch,+41 44 980 09 59,Maur,8124,Rausenbachweg,8,gonzenbach.waldvogel@gmail.com,Zelt - Klub Zürich,+41 44 980 09 55,,,,,,,,,,,,,,,,,,,,,
8.65886371915252,47.3555945966258,camp_site,,https://www.tcs-ccz.ch/homepage/index.php?id=141,+41 44 980 02 66,Maur,8124,Murholz,1,,,,,,,,,,,,,,,,,,,,,,,,
8.66383121636288,47.3527523683833,camp_site,Naturfreunde Zeltplatz am Greifensee,http://www.nf-zeltplatz.ch/,+41 77 447 16 38,Maur,8124,Aschbach,20,,Genossenschaft Naturfreunde Zeltplatz am Greifensee,,,,no,,,,,,,,,,,,,,,,,,
8.72606417071338,47.3621973260358,camp_site,,,,,,,,,,,,,,,,,,,,,,,,,,,,,,,
8.79318268647084,47.1391545219376,camp_site,Grüene Aff,https://www.grueneaff.ch/,,,,,,,,,,,,,,,,,,,,,,,,,,,,,
8.82671751672613,47.2215738409254,camp_site,Lido,,,Rapperswil,,Schönbodenstrasse,70,,,,,,,,,,,,,,,,,,,,,,,,
8.84376368788407,47.2174810424767,camp_site,Campingplatz Stampf,,,,,,,,,,,,no,,yes,,,,,,,,,,,,,,,,
8.88158323621322,47.2165839979181,camp_site,,,,,,,,,,,,,,,,,,,,,,,,,,,,,,,
9.04306694647831,47.2637786936299,camp_site,Camping Grünenfelder Ricken,,,Ricken,,,,,,,,,,,,,,,,,2,,,,,,,,,,
9.04451724960017,47.2650108554074,camp_site,Camping Adlerwiese Ricken,,,Ricken,,,,,,,,,,,,,,,,,2,,,,,,,,,,
8.79277939802875,47.3429610670607,camp_site,Campingplatz Auslikon,,+41 44 950 13 29,,,,,,,,,,,,,,,,,,,,,,,,,,,,
8.81087311685379,47.3578462239541,camp_site,Camping Waldhof,,,,,,,,,,,,,,,,,,,,,,,,,,,,,,
8.85931999783712,47.3908897338593,camp_site,Camping Saland,http://www.camping-saland.ch/,,,,,,,,,,,,,,,,,,,,,,,,,,,,,
8.827928916749,47.4339281078891,camp_site,Campingplatz Wildberg,http://www.campingwildberg.ch,,,,,,,,,,,,,,,,,,,,,,,,,,,,,
8.93556160320268,47.4106754945548,camp_site,Campingplatz Waldruh,camping-residenz-waldruh.ch,,,,,,,,,,,,,,,,,,,,,,,,,,,,,
8.89624102547933,47.4228390508175,camp_site,die neue zeit,,,,,,,,,,,,,,,,,,,,,,,,,,,,,,
8.99790121901172,47.2866348814129,camp_site,Atzmännig,,,,,,,,Bergbahn Atzmännig,,yes,,,,,,,,,,2,,,,,,,,,,
8.46057202248969,47.573118935555,camp_site,,,,,,,,,,,,,,,,,,,,,,,,,,,,,,,
8.58112468356482,47.5803928929309,camp_site,Camping Steubisallmend,,,,,,,,,,,,,,,,,,,,,,,,,,,,,,
8.71640166670452,47.5197321155535,camp_site,Campingplatz am Schützenweiher,,,,,,,,,,,,,,,,,,,,,,,,,,,,,,
8.68587114613612,47.596762651615,camp_site,,,,,,,,,,,,,,,,,,,,,,,,,,,,,,,
8.74174549077596,47.5887244834447,camp_site,Campingplatz Gütighausen,,,,,,,,,,,,,,,,,,,,,,,,,,,,,,
8.4476918845379,47.7419890876062,camp_site,,http://www.camping-wutach.de,,,,,,,,,,,,,,,,,,,,,,,,,,,,,
8.78014395143925,47.6770551242948,camp_site,Camping Läui,,+41 52657 1925,Diessenhofen,8253,,,,,,,,yes,,yes,CH,,,,,,,,,,,,,,,
8.71597367720168,47.6912763022925,camp_site,Laag,http://www.kcsh.ch/kcshlaagakt.asp,,,,,,,Kanu Club Schaffhausen,,,,,,,,,,,,,,,,,"private;permissive",,,,,
8.84474526101855,47.6462710710159,camp_site,Camping Chämihütte,,,Kaltenbach,8259,Unterer Giger,,,,,,,,,,CH,,,,,,,,,,,,,,,
8.86011094407145,47.643653563593,camp_site,,,,,,,,,,,,,,,,,,,,,,,,,,,,,,,
8.84087904196493,47.6627478172805,camp_site,Camping Wagenhausen,https://www.campingwagenhausen.ch/,+41 (0)52 741 42 71,,,,,,,,,,,,,,,,,,,,,,,,,,,,
8.87537565077104,47.6615975712671,camp_site,Grenzstein,http://www.campinggrenzstein.ch,,Stein am Rhein,8260,Oehningerstrasse,75,,,,,no,yes,,yes,CH,,,,,,,,,,,,,,,
8.91168973015279,47.6462173597542,camp_site,Seewiese,,,,,,,,,,,,,,,,,,,,,,,,,,,,,,
8.92405092575168,47.6463986943063,camp_site,Guldifuss,,,,,,,,,,,wlan,,,,,,,,no,,,,,,,,,,,
8.95675429252029,47.6567497726969,camp_site,Glarisegg,,+41 52 761 23 31,Steckborn,8266,,,,,,,,,,,,,,,,0,,,,,,,,,,
8.93577565977893,47.6597115342642,camp_site,Camping Wangen am See,,,,,,,,,,,,,,,,,,,,,,,,,,,,,,
8.96945762257458,47.6586416170498,camp_site,Badi Steckborn,https://www.strandbad-steckborn.ch,,Steckborn,8266,Seestraße,188,,,,,,,,,CH,,,,,,,,,,,,,,,
9.30039189307668,47.11803023022,camp_site,See-Camping,http://www.see-camping.ch/,+41 81 735 18 96,,,,,kontakt@see-camping.ch,Max Bürer,,yes,,,,,,,,,,,,,,,,,,,,
9.25567280463274,47.1841237084403,camp_site,,,,,,,,,,,,,,,,,,,,,,,,,,,,,,,
9.28744001030999,47.1937798234813,camp_site,Thurcamping Alt Sankt Johann,https://www.sellamatt.ch/index.php/camping,+41719991330,Alt Sankt Johann,9656,,,thurcamping@bluewin.ch,,+41719993575,,,,,,CH,,,,,,,,,,,,,,,
9.17305302649616,47.2457664913901,camp_site,,,,,,,,,,,,,,,,,,,,,,,,,,,,,,,
9.36086977338414,47.1998397728229,camp_site,,,,,,,,,,,,,,,,,,,,,,,,,,,,,,,
9.22432668938706,47.329469530032,camp_site,Schönengrund,http://www.camping-schoenengrund.ch/,,,,,,,,,,,,,,,,,,,,,,,,,,,,,
9.33476780530146,47.3178023872666,camp_site,Campingplatz Jakobsbad,http://www.camping-jakobsbad.ch/,+41 71 794 11 31,,9108,,,,,,,,,,,,,,,,,,,,,,,,,,
9.38723286352866,47.3225135926954,camp_site,Eischen,http://eischen.ch/camping/,+41 71 787 50 30,Appenzell,9050,Kaustrasse,123,info@eischen.ch,Hotel Landgasthof Eischen,+41 71 787 56 60,,,,,,,,,,,,,,,,,,,,,
9.27552380130519,47.5017989228413,camp_site,Leutswil,https://www.cctg.ch/Campingplaetze/Leutswil,,,,,,leutswil@cctg.ch,Camping Club Thurgau,,yes,wlan,yes,,yes,,,,,yes,,,,,serviced,,,,,,
9.42061460448137,47.5250583793488,camp_site,Camping Buchhorn,https://www.arbon.ch/freizeit_tourismus/camping,+41 71 446 65 45,Arbon,9320,Philosophenweg,17,,Stadt Arbon,,,wlan,,,,,,,,no,147,,,,,,,,,,
9.38529725029794,47.5493277731224,camp_site,Camping Luxburg,http://camping-luxburg.ch,+41 76 490 79 73,,,,,,,,,,,,,,,,,,,,,,,,,,,,
9.93466778525343,46.4606642579038,camp_site,Campingplatz Morteratsch,https://www.camping-morteratsch.ch/,,,,,,,,,,,,,,,,,yes,,,,,,,,,,,,
10.1039373490041,46.4828487605018,camp_site,Forcola Camping,www.forcola.com,+39 334 891 04 79,,,,,,,,,yes,,,,,,,yes,yes,,,,,,,,,,,
10.1178213263113,46.5063137675529,camp_site,Palipert,,,,,,,,,,,,yes,,yes,,,,,,,,,,,,,,,,
10.1185232931584,46.5071662073101,camp_site,Aquafresca,,,,,,,,,,,,yes,,,,,,,,,,,,,,,,,,
9.93943777734634,46.5873616574725,camp_site,Camping Madulain,http://www.campingmadulain.ch/,,Madulain,7523,Via Vallatscha,,,R. Garofani,,,,,,,,,,,,,,,,,,,,,,
10.0146020338017,46.6308897070573,camp_site,Camping Chapella,https://www.campingchapella.ch/,,Chapella,7526,,,,Familie Erna & Duri Campell,,,,yes,,yes,,,,,,,,,,serviced,,,,,,
10.0863858267035,46.6978357406498,camp_site,Camping CUL,http://www.camping-cul.ch/,,Zernez,7530,,,,,,,,,,,CH,,,,,,,,,,,,,,,
10.3669297674887,46.8185565563235,camp_site,Sur En,,,,,,,,,,,,,,,,,,,,,,,,,,,,,,
